{"type":"FeatureCollection","features":[{"type":"Feature","geometry":{"type":"MultiPolygon","coordinates":[[[[75.41204,12.50301],[75.40266,12.49942],[75.39872,12.50234],[75.39918,12.50385],[75.39187,12.50108],[75.3827,12.50285],[75.37903,12.4965],[75.37008,12.49255],[75.36921,12.48788],[75.37176,12.48714],[75.37441,12.48102],[75.37053,12.47466],[75.36832,12.47577],[75.36126,12.4654],[75.35766,12.46407],[75.35554,12.46592],[75.35172,12.46573],[75.34471,12.46337],[75.33578,12.46405],[75.34203,12.47054],[75.33848,12.47215],[75.33599,12.47676],[75.33741,12.49452],[75.33267,12.49921],[75.32338,12.49657],[75.31473,12.49683],[75.31208,12.50305],[75.30728,12.50222],[75.30403,12.50412],[75.30518,12.50775],[75.30322,12.51416],[75.3035,12.52328],[75.28998,12.52336],[75.28588,12.527],[75.2801,12.52567],[75.27309,12.53742],[75.2768,12.54158],[75.26972,12.54662],[75.27252,12.55223],[75.26895,12.56346],[75.27134,12.57119],[75.27996,12.57361],[75.28379,12.57102],[75.28885,12.58343],[75.30238,12.58121],[75.30787,12.57886],[75.31224,12.57421],[75.31554,12.57367],[75.31699,12.57757],[75.3261,12.58132],[75.3278,12.58453],[75.32705,12.59239],[75.31208,12.58984],[75.30189,12.60549],[75.29895,12.60582],[75.29148,12.60209],[75.28824,12.61094],[75.28603,12.61107],[75.28198,12.6161],[75.27572,12.61823],[75.27229,12.61533],[75.268,12.61426],[75.26517,12.61108],[75.2666,12.607],[75.26406,12.60506],[75.2626,12.59849],[75.26001,12.59624],[75.25633,12.59598],[75.24991,12.58424],[75.2481,12.5844],[75.24147,12.57954],[75.23922,12.58063],[75.23684,12.57604],[75.23817,12.57517],[75.23803,12.56911],[75.2269,12.56853],[75.22371,12.57026],[75.21991,12.56883],[75.22031,12.57153],[75.21724,12.57401],[75.21736,12.57607],[75.21289,12.57766],[75.20926,12.59156],[75.20113,12.5875],[75.20227,12.59395],[75.21061,12.59697],[75.20787,12.60271],[75.20804,12.60647],[75.20346,12.60987],[75.20016,12.61013],[75.19774,12.61407],[75.20153,12.6201],[75.20238,12.62875],[75.20134,12.63036],[75.19672,12.63152],[75.19536,12.63336],[75.19122,12.63313],[75.19073,12.63516],[75.18515,12.63316],[75.18577,12.63224],[75.18163,12.63268],[75.16983,12.62248],[75.16424,12.62424],[75.16083,12.62236],[75.1534,12.62526],[75.14508,12.63886],[75.14326,12.63951],[75.14265,12.63834],[75.13816,12.64365],[75.15015,12.64956],[75.15257,12.65691],[75.16141,12.67169],[75.14921,12.67311],[75.14843,12.67503],[75.15087,12.68292],[75.14595,12.68168],[75.14287,12.67766],[75.139,12.67956],[75.1372,12.67573],[75.13349,12.67791],[75.1329,12.67516],[75.12768,12.67665],[75.12451,12.68116],[75.12236,12.6786],[75.11798,12.68101],[75.11197,12.68148],[75.11376,12.68427],[75.1108,12.68805],[75.11076,12.6908],[75.10737,12.69153],[75.1054,12.69772],[75.09625,12.70097],[75.09277,12.70036],[75.08471,12.70533],[75.08523,12.70318],[75.0807,12.69915],[75.08502,12.69563],[75.0833,12.69373],[75.0854,12.692],[75.08484,12.68695],[75.08724,12.67611],[75.07959,12.67105],[75.07373,12.67191],[75.06935,12.66415],[75.0671,12.66347],[75.06037,12.6685],[75.05929,12.67154],[75.05769,12.66926],[75.05877,12.66599],[75.05689,12.66572],[75.05346,12.66974],[75.0503,12.66961],[75.04677,12.66654],[75.0423,12.67243],[75.04159,12.67851],[75.04338,12.68171],[75.04043,12.68407],[75.04302,12.6878],[75.04288,12.69309],[75.04679,12.69477],[75.05311,12.69255],[75.05302,12.69008],[75.056,12.69316],[75.05078,12.70372],[75.05207,12.70687],[75.05463,12.70701],[75.05412,12.71106],[75.05021,12.71592],[75.05171,12.72009],[75.04482,12.72243],[75.04322,12.72097],[75.03785,12.72418],[75.02662,12.71896],[75.01854,12.72108],[75.01568,12.71391],[75.00126,12.71612],[75.00102,12.71978],[75.0049,12.71971],[75.01324,12.72826],[74.99905,12.7326],[74.99256,12.73979],[74.98976,12.73724],[74.99071,12.73629],[74.98896,12.73592],[74.98893,12.73732],[74.98598,12.7339],[74.98393,12.73637],[74.98518,12.73882],[74.98351,12.73883],[74.98461,12.74367],[74.98766,12.74255],[74.99204,12.74678],[74.99336,12.74986],[74.99705,12.75254],[74.99894,12.75739],[75.00332,12.75979],[75.0049,12.76457],[75.00825,12.76707],[75.00286,12.78014],[75.00525,12.79097],[75.00216,12.79191],[74.99954,12.79067],[75.00249,12.7882],[74.99824,12.78661],[74.99931,12.78857],[74.99463,12.79055],[74.99123,12.79587],[74.98874,12.79591],[74.98753,12.7939],[74.98606,12.79607],[74.98606,12.79271],[74.98866,12.79283],[74.9924,12.78795],[74.98635,12.78229],[74.98323,12.78292],[74.98254,12.77997],[74.96655,12.7766],[74.96731,12.7796],[74.96443,12.78231],[74.9632,12.77923],[74.96028,12.77854],[74.95865,12.78494],[74.95054,12.78452],[74.94174,12.7802],[74.92545,12.77746],[74.91627,12.7712],[74.91124,12.77078],[74.89905,12.76244],[74.89313,12.76234],[74.88313,12.75398],[74.88021,12.75538],[74.87497,12.75447],[74.87218,12.76127],[74.86494,12.75932],[74.85404,12.78495],[74.84673,12.79495],[74.83681,12.82387],[74.83257,12.83123],[74.8335,12.8321],[74.83065,12.8404],[74.82472,12.84697],[74.82505,12.85126],[74.81767,12.885],[74.8158,12.88643],[74.81217,12.89764],[74.79467,12.98733],[74.78922,13.00621],[74.78481,13.03363],[74.7793,13.05539],[74.77696,13.07127],[74.75714,13.1545],[74.74895,13.1836],[74.74431,13.1937],[74.73576,13.22761],[74.72793,13.26605],[74.72055,13.28607],[74.71488,13.32141],[74.70647,13.33729],[74.69844,13.34337],[74.70064,13.34727],[74.69788,13.37267],[74.6964,13.37464],[74.69699,13.4156],[74.69196,13.4562],[74.69195,13.4655],[74.69338,13.46919],[74.68936,13.47486],[74.68761,13.48317],[74.68584,13.51393],[74.68081,13.55592],[74.66846,13.6307],[74.67058,13.62995],[74.66645,13.63951],[74.66821,13.63943],[74.66485,13.64555],[74.66331,13.65372],[74.65138,13.66538],[74.64587,13.68085],[74.63713,13.73894],[74.6185,13.82684],[74.60766,13.86635],[74.59707,13.88357],[74.58977,13.9122],[74.58551,13.92236],[74.58167,13.92545],[74.58825,13.93095],[74.58196,13.92573],[74.57892,13.92607],[74.57481,13.93835],[74.56925,13.94777],[74.56606,13.94964],[74.56154,13.94582],[74.5577,13.9518],[74.54918,13.9491],[74.55009,13.95029],[74.54784,13.95601],[74.54175,13.95872],[74.53896,13.96581],[74.53569,13.96722],[74.53287,13.96396],[74.532,13.9646],[74.5319,13.96886],[74.52897,13.97292],[74.52548,13.9752],[74.5186,13.98562],[74.51513,13.98698],[74.51434,13.99211],[74.51265,13.9981],[74.50954,14.00111],[74.50894,14.00702],[74.50249,14.02098],[74.50273,14.02524],[74.50451,14.02566],[74.50144,14.02791],[74.49931,14.05131],[74.49333,14.07716],[74.48844,14.08683],[74.48803,14.09278],[74.48575,14.09435],[74.48781,14.10418],[74.48691,14.10628],[74.48865,14.10736],[74.48565,14.1107],[74.48112,14.13717],[74.47638,14.14117],[74.47815,14.14474],[74.47079,14.18235],[74.46421,14.19907],[74.46086,14.20111],[74.45792,14.19872],[74.45411,14.19989],[74.4495,14.20827],[74.44685,14.21848],[74.44177,14.22757],[74.43958,14.23597],[74.44126,14.23581],[74.43825,14.24533],[74.43676,14.24534],[74.42208,14.2792],[74.42343,14.28718],[74.41265,14.31539],[74.41254,14.32979],[74.4101,14.33484],[74.40671,14.357],[74.40461,14.3577],[74.40603,14.35989],[74.40291,14.36799],[74.4032,14.37076],[74.40588,14.37036],[74.39633,14.41313],[74.39495,14.41682],[74.38554,14.41571],[74.3795,14.42168],[74.37948,14.42483],[74.38244,14.42596],[74.37861,14.43115],[74.38209,14.433],[74.38187,14.43888],[74.37387,14.46051],[74.37609,14.46075],[74.37247,14.47053],[74.37,14.4699],[74.36878,14.47296],[74.35926,14.49854],[74.36095,14.49958],[74.35876,14.50246],[74.35447,14.50221],[74.35506,14.50931],[74.34349,14.5135],[74.34043,14.51311],[74.33714,14.51872],[74.33046,14.51811],[74.32616,14.51597],[74.32556,14.51922],[74.31752,14.51961],[74.3138,14.5221],[74.31075,14.5215],[74.31532,14.5253],[74.31646,14.52924],[74.31591,14.53167],[74.3142,14.53119],[74.31159,14.53531],[74.31151,14.53925],[74.31383,14.5399],[74.31506,14.54238],[74.29486,14.59154],[74.29422,14.59911],[74.29644,14.60106],[74.29126,14.60126],[74.29016,14.60441],[74.27992,14.61107],[74.27909,14.61795],[74.27607,14.62474],[74.27077,14.62768],[74.27232,14.62938],[74.27936,14.62575],[74.28202,14.62756],[74.28532,14.63409],[74.28487,14.64721],[74.2808,14.64934],[74.28216,14.65251],[74.28166,14.65509],[74.27923,14.65899],[74.28131,14.66104],[74.27759,14.66529],[74.27519,14.66522],[74.27776,14.66858],[74.2761,14.66977],[74.27696,14.67094],[74.28033,14.66977],[74.28242,14.67645],[74.26883,14.70321],[74.26084,14.70759],[74.25704,14.70649],[74.26504,14.71139],[74.26297,14.71131],[74.26382,14.71736],[74.24795,14.74155],[74.23746,14.74817],[74.23282,14.74792],[74.22841,14.74552],[74.22662,14.74633],[74.22842,14.7415],[74.22781,14.73854],[74.22412,14.73451],[74.20234,14.73322],[74.20575,14.72604],[74.19343,14.72638],[74.19489,14.72936],[74.18966,14.74006],[74.18019,14.7508],[74.17635,14.74977],[74.17523,14.75116],[74.17181,14.75106],[74.17091,14.75222],[74.1729,14.75454],[74.15906,14.75467],[74.15814,14.75151],[74.15982,14.75059],[74.15704,14.74443],[74.15079,14.74709],[74.14984,14.74992],[74.15113,14.75287],[74.15465,14.75722],[74.15711,14.75781],[74.15782,14.76005],[74.15608,14.76423],[74.14271,14.77876],[74.14305,14.77999],[74.13752,14.78078],[74.13412,14.77845],[74.13287,14.78019],[74.12788,14.78091],[74.12602,14.77901],[74.12151,14.77942],[74.12311,14.78022],[74.12139,14.78365],[74.11539,14.78974],[74.1109,14.78424],[74.10858,14.78442],[74.11041,14.78996],[74.10855,14.79306],[74.10399,14.79205],[74.10051,14.79904],[74.09488,14.80075],[74.09356,14.80709],[74.09686,14.80922],[74.10345,14.80938],[74.10509,14.80613],[74.1076,14.80769],[74.10716,14.80524],[74.11368,14.80421],[74.11719,14.80129],[74.11977,14.80123],[74.122,14.80384],[74.12475,14.80438],[74.12783,14.8133],[74.12463,14.83554],[74.12709,14.83981],[74.11569,14.84442],[74.11195,14.84859],[74.1081,14.86903],[74.10389,14.87693],[74.09985,14.88089],[74.10122,14.888],[74.09769,14.89867],[74.09104,14.90044],[74.08551,14.89898],[74.09754,14.91316],[74.10171,14.91588],[74.10832,14.91255],[74.10903,14.9168],[74.12062,14.91763],[74.11997,14.91907],[74.12483,14.92524],[74.1301,14.92494],[74.13541,14.9202],[74.14023,14.92369],[74.14646,14.91843],[74.15431,14.91768],[74.16047,14.91307],[74.16513,14.9197],[74.16306,14.92533],[74.15825,14.93013],[74.1563,14.93841],[74.15375,14.94032],[74.1555,14.94221],[74.15432,14.94322],[74.1551,14.94643],[74.15858,14.94908],[74.15938,14.956],[74.16134,14.95579],[74.16422,14.95886],[74.17267,14.95783],[74.17506,14.95925],[74.18074,14.9576],[74.18097,14.95021],[74.19489,14.94289],[74.19702,14.93814],[74.19386,14.93264],[74.19698,14.92983],[74.19633,14.92856],[74.20156,14.92555],[74.20911,14.93762],[74.21345,14.94048],[74.2126,14.9443],[74.21488,14.9497],[74.21896,14.9459],[74.22563,14.95029],[74.2306,14.94981],[74.23144,14.95819],[74.23789,14.96595],[74.25249,14.95965],[74.25525,14.97082],[74.25868,14.97061],[74.26214,14.97615],[74.26649,14.97807],[74.25469,14.98917],[74.25581,14.99522],[74.27009,14.99831],[74.26915,15.00071],[74.27134,15.00739],[74.28136,15.02096],[74.28185,15.03061],[74.28989,15.03849],[74.29505,15.04003],[74.29467,15.04482],[74.29737,15.04666],[74.29698,15.05006],[74.29294,15.05439],[74.29249,15.06494],[74.28524,15.06638],[74.28214,15.06965],[74.28082,15.06851],[74.27557,15.09578],[74.27273,15.09785],[74.2764,15.1058],[74.27991,15.10523],[74.28256,15.10672],[74.28392,15.11951],[74.28646,15.12233],[74.28541,15.129],[74.2836,15.13124],[74.28577,15.13488],[74.28457,15.14328],[74.28586,15.14968],[74.2896,15.15011],[74.29234,15.14852],[74.29563,15.15104],[74.30548,15.16396],[74.31459,15.18032],[74.30996,15.20565],[74.30035,15.21682],[74.29137,15.23409],[74.28677,15.23273],[74.28074,15.23603],[74.25969,15.24124],[74.25193,15.25064],[74.25063,15.25964],[74.26117,15.2609],[74.27205,15.28166],[74.27685,15.28354],[74.28237,15.28037],[74.28745,15.28392],[74.29362,15.28472],[74.2946,15.28928],[74.3083,15.28363],[74.31959,15.2836],[74.32028,15.28495],[74.32636,15.28401],[74.33616,15.29562],[74.33276,15.29809],[74.32083,15.31434],[74.31692,15.32981],[74.31728,15.33476],[74.32197,15.34352],[74.31844,15.35762],[74.31398,15.36039],[74.3147,15.36414],[74.32126,15.36849],[74.29782,15.38333],[74.28483,15.38513],[74.2787,15.39277],[74.27868,15.40564],[74.27564,15.41334],[74.27227,15.41531],[74.27081,15.41849],[74.2709,15.42449],[74.27612,15.43258],[74.27466,15.43484],[74.2765,15.44063],[74.27486,15.44838],[74.26531,15.47247],[74.24903,15.49164],[74.25099,15.50021],[74.25984,15.5078],[74.27508,15.51439],[74.27896,15.51926],[74.27812,15.52148],[74.2785,15.52165],[74.27885,15.5236],[74.28135,15.52459],[74.28231,15.53124],[74.27765,15.54603],[74.26428,15.55787],[74.26266,15.56398],[74.26111,15.56379],[74.25878,15.5597],[74.24931,15.56656],[74.24562,15.56642],[74.25065,15.57587],[74.24869,15.57881],[74.25849,15.5924],[74.25752,15.59802],[74.25924,15.60093],[74.25975,15.60765],[74.26444,15.61512],[74.26263,15.61873],[74.26199,15.61779],[74.25974,15.61954],[74.26009,15.62095],[74.25586,15.62439],[74.24695,15.62092],[74.24493,15.62506],[74.252,15.65347],[74.25129,15.65541],[74.24456,15.6587],[74.24244,15.66148],[74.23834,15.66246],[74.23783,15.6668],[74.23587,15.66871],[74.2297,15.66705],[74.22855,15.66468],[74.22273,15.66841],[74.21758,15.66231],[74.21557,15.66267],[74.22082,15.65721],[74.22327,15.65724],[74.22277,15.65586],[74.21777,15.65228],[74.20552,15.65039],[74.20357,15.65623],[74.20463,15.66313],[74.20397,15.66203],[74.18889,15.66584],[74.18634,15.67404],[74.19069,15.67492],[74.18909,15.67875],[74.19044,15.6821],[74.18814,15.68027],[74.18271,15.68202],[74.17903,15.68102],[74.17246,15.67357],[74.16709,15.67235],[74.16431,15.667],[74.16352,15.65345],[74.15601,15.65386],[74.15261,15.64933],[74.14846,15.65118],[74.13912,15.65048],[74.13492,15.6484],[74.11839,15.65243],[74.11198,15.65656],[74.10081,15.65734],[74.09209,15.66232],[74.08656,15.66923],[74.0876,15.67304],[74.09017,15.67382],[74.10148,15.67124],[74.1127,15.67407],[74.12364,15.67987],[74.1294,15.69082],[74.13241,15.69326],[74.13091,15.70135],[74.13337,15.70253],[74.1329,15.70567],[74.12865,15.70854],[74.12674,15.70818],[74.12701,15.71893],[74.12222,15.72086],[74.12636,15.72513],[74.13124,15.72333],[74.13335,15.72518],[74.13403,15.73025],[74.13871,15.73096],[74.1418,15.73446],[74.14407,15.7336],[74.15052,15.73596],[74.15151,15.73774],[74.15049,15.74086],[74.15936,15.74945],[74.18967,15.75267],[74.20264,15.75829],[74.20461,15.76208],[74.2054,15.77288],[74.20968,15.78199],[74.21375,15.78056],[74.21602,15.78448],[74.22889,15.78915],[74.23243,15.78729],[74.23475,15.77911],[74.23069,15.77468],[74.22809,15.76739],[74.22801,15.75617],[74.23149,15.75375],[74.23372,15.74843],[74.23657,15.74819],[74.23592,15.74546],[74.23751,15.7445],[74.2412,15.74313],[74.25374,15.74496],[74.26879,15.7545],[74.2853,15.74105],[74.29493,15.74383],[74.30177,15.74845],[74.30912,15.74987],[74.30983,15.75526],[74.31809,15.75723],[74.3189,15.76597],[74.32319,15.77244],[74.33694,15.76758],[74.34045,15.76466],[74.34523,15.76421],[74.35021,15.76838],[74.3509,15.77078],[74.35319,15.77048],[74.35875,15.77497],[74.36217,15.78241],[74.36824,15.78583],[74.37218,15.79791],[74.37033,15.7988],[74.37192,15.79947],[74.37066,15.80114],[74.37142,15.80318],[74.36872,15.80651],[74.37012,15.80676],[74.36995,15.81199],[74.36139,15.81517],[74.36022,15.81763],[74.36549,15.81903],[74.36607,15.82564],[74.37075,15.83028],[74.37211,15.82974],[74.37271,15.83212],[74.37743,15.8322],[74.37617,15.83301],[74.37928,15.83558],[74.3797,15.83806],[74.38049,15.83826],[74.37982,15.83638],[74.38099,15.83534],[74.38188,15.83896],[74.38403,15.84054],[74.3826,15.84142],[74.38316,15.84941],[74.37032,15.85104],[74.34477,15.85032],[74.33792,15.85495],[74.34324,15.85717],[74.34642,15.86031],[74.34517,15.863],[74.35073,15.86572],[74.35797,15.87347],[74.36325,15.87509],[74.36527,15.88227],[74.36453,15.89359],[74.36865,15.89386],[74.36602,15.89091],[74.37378,15.88605],[74.37861,15.88019],[74.38253,15.86036],[74.38672,15.86],[74.38767,15.85411],[74.39114,15.85482],[74.39183,15.85304],[74.39762,15.85057],[74.40233,15.85233],[74.40118,15.85383],[74.40225,15.85462],[74.40617,15.85547],[74.4064,15.86455],[74.40362,15.86484],[74.39749,15.86989],[74.39283,15.87854],[74.39685,15.88072],[74.39397,15.90002],[74.39074,15.89982],[74.38699,15.90151],[74.38638,15.90359],[74.3846,15.90335],[74.42843,15.95227],[74.43933,15.97679],[74.43749,15.98024],[74.43972,15.98098],[74.44388,15.98637],[74.44269,15.99159],[74.445,15.99261],[74.44646,15.99687],[74.44438,16.00332],[74.44707,16.00364],[74.45031,16.01256],[74.4553,16.01903],[74.46332,16.04354],[74.46294,16.04935],[74.457,16.04758],[74.44902,16.05392],[74.44604,16.05195],[74.44312,16.05235],[74.43007,16.05927],[74.42254,16.05541],[74.41476,16.05517],[74.40399,16.05091],[74.40108,16.04536],[74.38135,16.03567],[74.37065,16.03858],[74.37888,16.05379],[74.37318,16.05521],[74.36554,16.05226],[74.36013,16.05333],[74.37167,16.06745],[74.37237,16.0785],[74.38204,16.07966],[74.38369,16.08341],[74.39142,16.08046],[74.39186,16.08276],[74.3891,16.08775],[74.38982,16.08958],[74.40723,16.09407],[74.40875,16.09521],[74.4102,16.10274],[74.42745,16.11253],[74.44317,16.10565],[74.45888,16.10485],[74.45925,16.1004],[74.47285,16.0929],[74.4731,16.09079],[74.47659,16.09009],[74.48223,16.08954],[74.48466,16.0912],[74.48593,16.10035],[74.4886,16.10095],[74.49108,16.10414],[74.49084,16.11342],[74.48482,16.14226],[74.47981,16.14516],[74.47973,16.14776],[74.48814,16.15682],[74.48971,16.16314],[74.48932,16.17728],[74.49391,16.18665],[74.50558,16.18945],[74.50741,16.19471],[74.50606,16.20071],[74.50806,16.20201],[74.50071,16.20442],[74.49579,16.21249],[74.49542,16.21666],[74.50235,16.22179],[74.50243,16.22356],[74.4958,16.23414],[74.49043,16.23445],[74.47987,16.25],[74.47778,16.25025],[74.46889,16.23961],[74.45593,16.24398],[74.45482,16.25325],[74.4368,16.25125],[74.43644,16.25764],[74.41761,16.25808],[74.415,16.27756],[74.41612,16.28014],[74.41355,16.28358],[74.40759,16.28344],[74.38563,16.27689],[74.38331,16.2917],[74.38112,16.29157],[74.37244,16.29679],[74.3695,16.29235],[74.36483,16.29376],[74.36182,16.29156],[74.35738,16.29131],[74.3452,16.29353],[74.34291,16.29057],[74.35355,16.28328],[74.34902,16.27564],[74.34921,16.27684],[74.34341,16.2784],[74.34235,16.27656],[74.34368,16.27363],[74.3384,16.27124],[74.33355,16.27555],[74.33549,16.27158],[74.33408,16.26834],[74.32925,16.2678],[74.32486,16.27143],[74.32438,16.27694],[74.32273,16.27791],[74.32109,16.28435],[74.32335,16.28581],[74.3264,16.28525],[74.32499,16.28805],[74.32826,16.29307],[74.33249,16.29219],[74.3351,16.28952],[74.33675,16.2908],[74.33854,16.29003],[74.3395,16.29264],[74.34259,16.29088],[74.34181,16.2939],[74.34371,16.29596],[74.34267,16.29828],[74.34047,16.29769],[74.34009,16.30263],[74.33597,16.30735],[74.33176,16.30478],[74.33428,16.30802],[74.33151,16.31377],[74.3235,16.31258],[74.32345,16.31604],[74.33345,16.32012],[74.33014,16.32601],[74.32643,16.3231],[74.32124,16.32291],[74.3147,16.32651],[74.32201,16.33396],[74.31471,16.34042],[74.32024,16.3433],[74.3273,16.34223],[74.31564,16.35585],[74.31838,16.35398],[74.32514,16.3584],[74.31984,16.36804],[74.32006,16.37597],[74.31701,16.3791],[74.31867,16.38013],[74.32515,16.37869],[74.32823,16.38504],[74.32724,16.39181],[74.33623,16.39448],[74.33784,16.39141],[74.34046,16.39021],[74.34217,16.38569],[74.34148,16.38293],[74.34338,16.38243],[74.3459,16.37765],[74.34537,16.3733],[74.34775,16.36713],[74.35352,16.36599],[74.35453,16.37054],[74.35259,16.38178],[74.35539,16.3817],[74.35693,16.38332],[74.35838,16.39121],[74.363,16.39545],[74.36205,16.40165],[74.3635,16.40485],[74.35161,16.40644],[74.34479,16.40546],[74.34007,16.40203],[74.33559,16.40124],[74.33255,16.41228],[74.32784,16.41901],[74.3302,16.42077],[74.33156,16.42486],[74.33704,16.42881],[74.33236,16.43605],[74.33582,16.44543],[74.32923,16.4472],[74.33211,16.45523],[74.32499,16.45577],[74.31987,16.4534],[74.31185,16.45318],[74.30603,16.45522],[74.2969,16.46396],[74.2917,16.46139],[74.28949,16.46284],[74.28822,16.47661],[74.29196,16.48537],[74.29135,16.50467],[74.27918,16.50474],[74.27792,16.49935],[74.27415,16.49354],[74.27476,16.48536],[74.26055,16.47978],[74.25701,16.48884],[74.24766,16.4961],[74.24986,16.49941],[74.25451,16.5008],[74.26468,16.50056],[74.27156,16.50369],[74.27808,16.50459],[74.27853,16.51174],[74.2758,16.52107],[74.2696,16.52214],[74.26391,16.53974],[74.27049,16.54834],[74.27456,16.54736],[74.28111,16.54153],[74.28075,16.53259],[74.28349,16.52496],[74.28806,16.52826],[74.28878,16.53184],[74.29114,16.5339],[74.30122,16.52998],[74.30242,16.526],[74.301,16.52366],[74.30656,16.50404],[74.31564,16.50428],[74.31629,16.55548],[74.31789,16.55457],[74.32396,16.5575],[74.33154,16.55288],[74.33495,16.54876],[74.33928,16.5488],[74.34665,16.55622],[74.35443,16.55569],[74.35347,16.55933],[74.35621,16.56003],[74.36026,16.5556],[74.3582,16.55416],[74.35765,16.55547],[74.35792,16.55286],[74.35664,16.55241],[74.35826,16.53898],[74.36241,16.53908],[74.37277,16.53512],[74.37725,16.52874],[74.381,16.52919],[74.38729,16.53596],[74.38888,16.55238],[74.38713,16.55999],[74.3935,16.5653],[74.39116,16.56537],[74.39052,16.56787],[74.39561,16.57306],[74.39669,16.58286],[74.40839,16.58334],[74.41795,16.58614],[74.42215,16.58471],[74.42632,16.59606],[74.43517,16.60092],[74.46634,16.60529],[74.46414,16.61589],[74.46557,16.61635],[74.4658,16.62423],[74.45901,16.63371],[74.45537,16.64714],[74.45873,16.64898],[74.45611,16.65575],[74.46335,16.65839],[74.4701,16.66469],[74.47287,16.66471],[74.47543,16.65463],[74.4752,16.64753],[74.48268,16.63694],[74.49002,16.63029],[74.4957,16.63001],[74.50117,16.63353],[74.52389,16.63364],[74.54472,16.63567],[74.54506,16.62918],[74.54289,16.62675],[74.54452,16.59569],[74.55911,16.59511],[74.56654,16.58629],[74.56507,16.58017],[74.55572,16.57242],[74.5551,16.56468],[74.56088,16.56304],[74.566,16.55889],[74.5676,16.5555],[74.5726,16.55501],[74.57317,16.55918],[74.57486,16.56023],[74.58021,16.56029],[74.5842,16.55798],[74.5855,16.55903],[74.58446,16.56259],[74.58793,16.56644],[74.60013,16.56473],[74.60281,16.5663],[74.60444,16.56972],[74.60796,16.56927],[74.61422,16.57419],[74.61451,16.57902],[74.61838,16.5845],[74.62258,16.58016],[74.6296,16.57841],[74.63303,16.58395],[74.63427,16.58352],[74.63523,16.58366],[74.63278,16.59191],[74.63136,16.59195],[74.63274,16.60547],[74.64006,16.61246],[74.64641,16.61185],[74.6539,16.60703],[74.66019,16.60516],[74.67127,16.60989],[74.67215,16.61188],[74.67414,16.61199],[74.67574,16.60998],[74.67632,16.61183],[74.6782,16.6119],[74.68375,16.60933],[74.68423,16.60744],[74.68651,16.60839],[74.68453,16.60993],[74.68712,16.60934],[74.688,16.61196],[74.68557,16.6182],[74.67417,16.62279],[74.66682,16.62982],[74.65816,16.63054],[74.65165,16.63794],[74.65637,16.64128],[74.65851,16.64556],[74.66518,16.66539],[74.67965,16.66616],[74.6791,16.67315],[74.68935,16.67687],[74.68866,16.6816],[74.68147,16.68108],[74.68116,16.68393],[74.68135,16.68673],[74.68925,16.68636],[74.68972,16.69624],[74.6882,16.70521],[74.68927,16.70798],[74.68757,16.70849],[74.6886,16.7123],[74.68642,16.71326],[74.69094,16.71847],[74.69342,16.71617],[74.70282,16.71546],[74.72742,16.71692],[74.72752,16.7198],[74.73026,16.72053],[74.73207,16.71855],[74.73702,16.72367],[74.75305,16.73136],[74.75252,16.733],[74.76,16.74142],[74.76394,16.74189],[74.7696,16.74537],[74.77181,16.75089],[74.78422,16.75083],[74.79542,16.74734],[74.79824,16.75376],[74.8443,16.76203],[74.84978,16.77257],[74.86543,16.76398],[74.8686,16.77419],[74.89099,16.77134],[74.91944,16.77275],[74.91032,16.78982],[74.91011,16.81567],[74.90822,16.82374],[74.90994,16.83644],[74.90731,16.85032],[74.90135,16.86263],[74.91064,16.8643],[74.92599,16.86396],[74.92355,16.86718],[74.92526,16.86754],[74.9254,16.87222],[74.9352,16.87096],[74.93559,16.87893],[74.94445,16.88248],[74.94457,16.88114],[74.96028,16.88101],[74.96372,16.91065],[74.95851,16.90532],[74.95453,16.90509],[74.95503,16.90996],[74.94334,16.91112],[74.93818,16.91704],[74.93272,16.9186],[74.93386,16.92399],[74.92141,16.92968],[74.92318,16.93956],[74.92658,16.93979],[74.93383,16.94562],[74.94297,16.94041],[74.94716,16.94011],[74.9492,16.93458],[74.95773,16.92855],[74.96293,16.92813],[74.96502,16.929],[74.96468,16.93098],[74.9598,16.93371],[74.95888,16.9373],[74.96004,16.93986],[74.96704,16.94124],[74.96412,16.94754],[74.97349,16.95103],[74.99479,16.952],[75.00039,16.95032],[75.00541,16.94665],[75.02688,16.94486],[75.02512,16.93931],[75.02577,16.92872],[75.02631,16.93224],[75.03583,16.9332],[75.03774,16.9359],[75.03999,16.93594],[75.04119,16.94065],[75.04519,16.94231],[75.06114,16.94163],[75.07017,16.94684],[75.07271,16.94671],[75.07462,16.95048],[75.0782,16.94927],[75.08526,16.95205],[75.09014,16.95202],[75.09238,16.94028],[75.09234,16.92593],[75.09611,16.91394],[75.10263,16.91274],[75.11753,16.91352],[75.12004,16.90238],[75.13496,16.89467],[75.13266,16.88997],[75.13625,16.87442],[75.15554,16.86805],[75.16476,16.86703],[75.17646,16.86798],[75.18881,16.87499],[75.18189,16.84346],[75.21749,16.8419],[75.22799,16.84345],[75.23771,16.86769],[75.2655,16.86314],[75.273,16.86924],[75.28251,16.88101],[75.28981,16.9047],[75.28244,16.91208],[75.28003,16.92371],[75.28065,16.95323],[75.27952,16.95686],[75.34159,16.95621],[75.34311,16.95286],[75.34164,16.95646],[75.35492,16.96022],[75.35896,16.96323],[75.35881,16.96514],[75.36863,16.97222],[75.38937,16.98],[75.39641,16.97941],[75.41212,16.97444],[75.42802,16.96673],[75.43562,16.97376],[75.44215,16.98261],[75.46564,16.9885],[75.46651,16.98181],[75.46864,16.97978],[75.483,16.97698],[75.48829,16.96215],[75.48903,16.94464],[75.50691,16.95128],[75.50944,16.95071],[75.52857,16.9695],[75.53864,16.96579],[75.56366,16.96795],[75.56729,16.96607],[75.5655,16.98422],[75.56706,17.009],[75.57438,17.00935],[75.60688,17.00496],[75.60601,16.99509],[75.60805,16.98233],[75.60783,16.9714],[75.63257,16.9704],[75.63663,16.96871],[75.6383,16.95788],[75.64285,16.95444],[75.64669,16.95386],[75.64963,16.95975],[75.65619,16.96158],[75.67038,16.96203],[75.67562,16.96675],[75.67658,16.96896],[75.67252,16.97099],[75.67182,16.97626],[75.66874,16.97946],[75.6657,16.97966],[75.66536,16.99224],[75.66873,17.00992],[75.66975,17.038],[75.65181,17.03312],[75.64032,17.03761],[75.6501,17.05738],[75.65898,17.06383],[75.67641,17.06532],[75.67783,17.07253],[75.67954,17.07409],[75.6746,17.09012],[75.67612,17.09509],[75.67345,17.1013],[75.67243,17.11569],[75.65042,17.11554],[75.65022,17.13474],[75.64749,17.13471],[75.64542,17.14351],[75.62837,17.16214],[75.62535,17.17387],[75.62601,17.1796],[75.62727,17.18321],[75.62851,17.18316],[75.62843,17.18865],[75.64026,17.18919],[75.64028,17.19391],[75.64492,17.19936],[75.65615,17.20598],[75.66222,17.21453],[75.65876,17.23887],[75.65747,17.26368],[75.65438,17.27351],[75.62744,17.27378],[75.62653,17.27453],[75.62936,17.28079],[75.62521,17.2848],[75.622,17.2951],[75.60327,17.30466],[75.61238,17.32697],[75.6102,17.34461],[75.5953,17.34586],[75.58698,17.35003],[75.58166,17.35085],[75.57542,17.38398],[75.58983,17.38611],[75.60114,17.39073],[75.60503,17.39418],[75.61339,17.39154],[75.61207,17.40664],[75.60661,17.42014],[75.60993,17.42361],[75.61372,17.42429],[75.61556,17.43914],[75.62064,17.45233],[75.62135,17.45871],[75.62731,17.46234],[75.63411,17.47946],[75.65079,17.47152],[75.66147,17.45993],[75.67335,17.46044],[75.67658,17.45833],[75.67963,17.45106],[75.67911,17.43511],[75.68512,17.4179],[75.68823,17.41372],[75.69403,17.41067],[75.70109,17.4096],[75.71616,17.41085],[75.72685,17.42229],[75.73298,17.42248],[75.75081,17.40993],[75.76573,17.40805],[75.76853,17.40457],[75.77264,17.38737],[75.78368,17.37597],[75.79349,17.37189],[75.80502,17.36994],[75.81336,17.3759],[75.81269,17.39655],[75.81762,17.40761],[75.81597,17.40888],[75.81613,17.41462],[75.81966,17.42142],[75.82236,17.42297],[75.83559,17.42191],[75.85101,17.4133],[75.85584,17.40608],[75.8577,17.39787],[75.85738,17.38897],[75.86073,17.3862],[75.87434,17.39929],[75.87335,17.41099],[75.87502,17.4167],[75.88011,17.41958],[75.88638,17.41824],[75.8946,17.40575],[75.89748,17.38523],[75.8982,17.37707],[75.89169,17.35928],[75.8951,17.35308],[75.90984,17.34661],[75.92178,17.33068],[75.92955,17.32408],[75.93413,17.32394],[75.96618,17.33693],[75.98914,17.33763],[75.99765,17.33947],[76.00313,17.3445],[76.00828,17.35256],[76.0122,17.35427],[76.02798,17.35266],[76.05152,17.35834],[76.06021,17.35754],[76.06439,17.35389],[76.07429,17.33587],[76.07428,17.33584],[76.07901,17.33128],[76.08149,17.33408],[76.08821,17.3369],[76.08803,17.34234],[76.09144,17.3496],[76.08911,17.35281],[76.09947,17.36455],[76.11327,17.36788],[76.11966,17.37107],[76.12229,17.3665],[76.13159,17.35886],[76.14726,17.34994],[76.14662,17.34805],[76.14843,17.34745],[76.14877,17.34977],[76.1625,17.34485],[76.16488,17.30306],[76.17582,17.30073],[76.18084,17.30943],[76.18271,17.31864],[76.17907,17.31838],[76.17566,17.32642],[76.17265,17.33539],[76.17019,17.35236],[76.18163,17.35869],[76.19551,17.36309],[76.21241,17.36195],[76.22885,17.3654],[76.22772,17.37598],[76.24196,17.37925],[76.24471,17.37902],[76.24461,17.37161],[76.24961,17.37101],[76.25054,17.36928],[76.24926,17.36602],[76.25078,17.36077],[76.25819,17.36048],[76.26687,17.3635],[76.27183,17.36062],[76.27631,17.33439],[76.31727,17.33209],[76.31896,17.33627],[76.31052,17.3457],[76.31112,17.34752],[76.33868,17.35424],[76.3458,17.35436],[76.34749,17.34435],[76.35412,17.32532],[76.3539,17.31438],[76.38381,17.31433],[76.38501,17.32375],[76.39639,17.34696],[76.40336,17.34981],[76.41206,17.35091],[76.40909,17.37067],[76.37992,17.37381],[76.36311,17.37741],[76.37054,17.40829],[76.36965,17.42294],[76.37144,17.43605],[76.3587,17.4373],[76.33282,17.43469],[76.33316,17.45564],[76.33093,17.45555],[76.32952,17.47058],[76.34994,17.47416],[76.36862,17.48326],[76.37543,17.49038],[76.37502,17.49494],[76.37178,17.4957],[76.36442,17.49611],[76.34608,17.49221],[76.34305,17.50184],[76.34572,17.51367],[76.36517,17.51726],[76.36696,17.52018],[76.36301,17.5378],[76.349,17.5396],[76.34016,17.54369],[76.3352,17.56613],[76.33305,17.56538],[76.33092,17.59736],[76.33597,17.59852],[76.3477,17.59565],[76.36776,17.59727],[76.377,17.60019],[76.3806,17.60364],[76.3895,17.60227],[76.38933,17.60349],[76.39688,17.60483],[76.41857,17.60508],[76.42685,17.63135],[76.42741,17.64741],[76.43701,17.6459],[76.44402,17.64235],[76.44132,17.64907],[76.45271,17.64887],[76.45153,17.65587],[76.45807,17.65901],[76.48885,17.66152],[76.48586,17.66729],[76.4832,17.68023],[76.48627,17.71577],[76.51219,17.7196],[76.51564,17.71952],[76.52388,17.71532],[76.52735,17.73815],[76.52376,17.76017],[76.53056,17.75848],[76.54186,17.76219],[76.5455,17.76117],[76.55618,17.76596],[76.56092,17.76644],[76.57249,17.76127],[76.5725,17.75954],[76.56895,17.7576],[76.56434,17.75093],[76.56799,17.74278],[76.57058,17.7064],[76.58043,17.70524],[76.5878,17.70765],[76.59399,17.72258],[76.60073,17.72614],[76.60014,17.73329],[76.60441,17.7517],[76.60401,17.75885],[76.60704,17.76075],[76.61146,17.77115],[76.61673,17.77033],[76.62265,17.76078],[76.62584,17.75953],[76.62555,17.75787],[76.63183,17.75573],[76.63041,17.752],[76.62799,17.75091],[76.63352,17.72851],[76.65342,17.7223],[76.65953,17.70947],[76.66525,17.68784],[76.67314,17.69106],[76.68428,17.68578],[76.68821,17.68019],[76.6915,17.68161],[76.69522,17.67701],[76.68988,17.68412],[76.69351,17.69597],[76.70341,17.69329],[76.69413,17.69614],[76.69124,17.70078],[76.69234,17.70687],[76.70034,17.70845],[76.70083,17.70727],[76.70543,17.72315],[76.69894,17.72707],[76.69926,17.72835],[76.72829,17.73756],[76.72418,17.75011],[76.71839,17.75189],[76.72156,17.76975],[76.71268,17.77415],[76.71427,17.78132],[76.72143,17.78821],[76.72997,17.78295],[76.7407,17.77977],[76.74388,17.78011],[76.74251,17.7841],[76.75116,17.7851],[76.75129,17.78718],[76.76191,17.7874],[76.76575,17.79187],[76.76631,17.79885],[76.77926,17.79821],[76.77879,17.80217],[76.78255,17.80685],[76.7812,17.81499],[76.78389,17.82009],[76.78772,17.82131],[76.78879,17.82527],[76.7907,17.8251],[76.78691,17.83318],[76.78174,17.83497],[76.77501,17.84132],[76.77402,17.84621],[76.76835,17.8517],[76.76551,17.85125],[76.75977,17.8557],[76.75388,17.8577],[76.73845,17.85604],[76.73869,17.88276],[76.74119,17.89487],[76.73996,17.89954],[76.75876,17.89962],[76.76825,17.90241],[76.77345,17.89138],[76.77476,17.88122],[76.7738,17.87847],[76.78834,17.87609],[76.79508,17.87253],[76.8056,17.87089],[76.80808,17.8714],[76.80755,17.87787],[76.81006,17.88741],[76.81762,17.88678],[76.81948,17.88387],[76.82586,17.88603],[76.82615,17.88421],[76.82797,17.88492],[76.82822,17.88323],[76.83264,17.88259],[76.83154,17.8867],[76.83252,17.89334],[76.83959,17.89979],[76.84542,17.8996],[76.84708,17.90131],[76.8479,17.90018],[76.87167,17.89897],[76.87994,17.89456],[76.88131,17.89598],[76.88417,17.89426],[76.88365,17.89943],[76.88846,17.8984],[76.89364,17.89994],[76.89367,17.90633],[76.89619,17.90603],[76.89634,17.91084],[76.89881,17.90933],[76.90151,17.91452],[76.90041,17.91755],[76.91471,17.91478],[76.91887,17.91642],[76.91965,17.94292],[76.91689,17.95615],[76.91491,17.95726],[76.91243,17.97498],[76.91337,17.9932],[76.91254,17.99668],[76.90651,17.99671],[76.90804,17.9988],[76.90569,18.00274],[76.90569,18.00986],[76.90781,18.01445],[76.91094,18.01335],[76.91148,18.01472],[76.91447,18.03556],[76.94667,18.03895],[76.95344,18.04199],[76.94358,18.04632],[76.94375,18.04962],[76.95118,18.0604],[76.95081,18.06275],[76.94862,18.06301],[76.95042,18.06346],[76.95052,18.06549],[76.94745,18.07075],[76.94402,18.08338],[76.96235,18.09058],[76.96507,18.09506],[76.96535,18.09886],[76.95758,18.10517],[76.95431,18.11046],[76.93748,18.11457],[76.93439,18.11251],[76.93055,18.11308],[76.92172,18.11767],[76.91847,18.12115],[76.91795,18.12411],[76.92342,18.12995],[76.93247,18.1336],[76.92928,18.13878],[76.92833,18.13817],[76.92146,18.1441],[76.929,18.15402],[76.93029,18.15937],[76.93707,18.1598],[76.94251,18.15662],[76.94842,18.16939],[76.95133,18.18831],[76.96241,18.19036],[76.97734,18.18945],[76.97891,18.19263],[76.99141,18.1907],[76.99059,18.18583],[76.99464,18.1827],[76.99451,18.17519],[76.99716,18.1664],[77.00262,18.16255],[77.00199,18.1614],[77.00776,18.16006],[77.02375,18.15854],[77.02347,18.16214],[77.02609,18.16673],[77.02359,18.17538],[77.03208,18.17746],[77.03357,18.18218],[77.05219,18.17385],[77.05305,18.16072],[77.05933,18.15706],[77.06427,18.15181],[77.08427,18.15179],[77.08814,18.15336],[77.08982,18.15595],[77.09994,18.15895],[77.10527,18.15619],[77.11204,18.15692],[77.11626,18.16937],[77.11467,18.17327],[77.09697,18.19407],[77.09694,18.19655],[77.10938,18.20431],[77.12373,18.20676],[77.12385,18.20895],[77.12659,18.20932],[77.13394,18.20595],[77.13467,18.2072],[77.14028,18.20758],[77.14266,18.21693],[77.15118,18.21673],[77.15104,18.22119],[77.14887,18.2214],[77.14876,18.23936],[77.15192,18.23876],[77.15985,18.25708],[77.16472,18.25775],[77.16966,18.26089],[77.17097,18.27733],[77.17475,18.28476],[77.18742,18.28487],[77.19792,18.27679],[77.20314,18.27958],[77.21358,18.2808],[77.20946,18.28842],[77.21019,18.2947],[77.2055,18.29407],[77.2037,18.29676],[77.20229,18.30936],[77.19876,18.31455],[77.20211,18.32177],[77.21155,18.31623],[77.21486,18.32341],[77.21875,18.32564],[77.22249,18.33925],[77.22944,18.34764],[77.21965,18.34888],[77.2243,18.35656],[77.2254,18.36514],[77.23304,18.36942],[77.24629,18.37014],[77.24855,18.37444],[77.24769,18.37603],[77.2398,18.3772],[77.23338,18.38805],[77.23497,18.40072],[77.23998,18.40893],[77.24134,18.41284],[77.2402,18.41333],[77.24414,18.41528],[77.25969,18.41357],[77.26637,18.42285],[77.27277,18.42264],[77.27493,18.42614],[77.28244,18.43077],[77.28914,18.43139],[77.29436,18.43482],[77.29782,18.43523],[77.30401,18.44015],[77.31319,18.44144],[77.315,18.44126],[77.31474,18.43988],[77.31098,18.43723],[77.31352,18.42763],[77.31535,18.42771],[77.31638,18.42101],[77.31778,18.42229],[77.32289,18.42116],[77.32619,18.41657],[77.34013,18.42507],[77.34009,18.43815],[77.34364,18.4429],[77.34705,18.44233],[77.35345,18.44993],[77.35721,18.44927],[77.35719,18.45047],[77.36561,18.451],[77.36684,18.44825],[77.3692,18.4475],[77.3632,18.43639],[77.36499,18.4354],[77.36345,18.43099],[77.36701,18.42866],[77.36715,18.41896],[77.37003,18.41839],[77.36803,18.41314],[77.37264,18.40094],[77.37909,18.40221],[77.38436,18.39999],[77.40095,18.40229],[77.40151,18.40003],[77.40437,18.39974],[77.41415,18.39219],[77.40983,18.37661],[77.40294,18.37351],[77.40169,18.37085],[77.39494,18.36947],[77.39969,18.3599],[77.40058,18.34753],[77.39508,18.34784],[77.39541,18.3434],[77.38936,18.34208],[77.38884,18.3405],[77.38261,18.3405],[77.38149,18.33146],[77.3761,18.33237],[77.36985,18.32471],[77.3563,18.32089],[77.36577,18.30894],[77.38548,18.30886],[77.38946,18.30785],[77.39355,18.30411],[77.40049,18.305],[77.40294,18.30268],[77.41235,18.30213],[77.41689,18.30648],[77.42406,18.30882],[77.42564,18.308],[77.42868,18.31292],[77.43768,18.31029],[77.43892,18.30801],[77.43695,18.30078],[77.43691,18.29206],[77.44117,18.28213],[77.44622,18.28345],[77.4477,18.26987],[77.45168,18.26986],[77.45086,18.26794],[77.4643,18.26284],[77.47526,18.26512],[77.48066,18.27207],[77.4888,18.26827],[77.49387,18.26919],[77.49648,18.2744],[77.50238,18.27815],[77.50516,18.28427],[77.50803,18.28451],[77.51018,18.29308],[77.50893,18.29518],[77.51067,18.29786],[77.50866,18.30467],[77.51317,18.31015],[77.52356,18.30842],[77.53536,18.2976],[77.54827,18.29472],[77.5487,18.29244],[77.55506,18.28958],[77.56089,18.28427],[77.56633,18.28672],[77.57244,18.2948],[77.57363,18.29026],[77.57849,18.28634],[77.59864,18.28262],[77.60343,18.27934],[77.60333,18.27814],[77.60136,18.27827],[77.5998,18.27339],[77.59137,18.2616],[77.58414,18.26073],[77.58161,18.25897],[77.5728,18.24298],[77.5724,18.23966],[77.57659,18.23712],[77.58067,18.2316],[77.58014,18.22919],[77.5864,18.2176],[77.581,18.21622],[77.57619,18.20169],[77.5649,18.20357],[77.56307,18.19546],[77.56337,18.19364],[77.57021,18.19283],[77.57446,18.17448],[77.57809,18.17104],[77.58343,18.16105],[77.59094,18.15622],[77.59723,18.15655],[77.59408,18.13643],[77.60219,18.10515],[77.59769,18.09735],[77.59592,18.0856],[77.56491,18.0758],[77.56071,18.07175],[77.55787,18.06375],[77.54844,18.06438],[77.54803,18.05322],[77.55141,18.0506],[77.5466,18.03639],[77.56093,18.03673],[77.57311,18.03287],[77.58005,18.03255],[77.58427,18.02794],[77.5849,18.02073],[77.58745,18.01425],[77.59032,18.01269],[77.59612,18.01378],[77.60002,18.01824],[77.60025,18.02122],[77.60285,18.02098],[77.60667,18.01779],[77.60771,18.01055],[77.61952,18.00683],[77.62639,17.99675],[77.62868,17.99869],[77.63811,17.99713],[77.64898,17.9999],[77.65271,17.99526],[77.65207,17.98757],[77.6485,17.98236],[77.64874,17.97941],[77.65611,17.96975],[77.65139,17.9614],[77.65026,17.95009],[77.64097,17.95387],[77.64067,17.95197],[77.63701,17.9525],[77.63552,17.95947],[77.63334,17.96054],[77.63346,17.96795],[77.62454,17.95949],[77.63318,17.95648],[77.63304,17.94947],[77.63263,17.94651],[77.62215,17.9449],[77.61827,17.93834],[77.62219,17.92889],[77.61893,17.90369],[77.60429,17.90732],[77.60001,17.90404],[77.58623,17.90828],[77.58481,17.9005],[77.58614,17.89397],[77.59582,17.88212],[77.6009,17.88092],[77.5997,17.87641],[77.59835,17.87328],[77.59104,17.87169],[77.58986,17.87497],[77.58367,17.8774],[77.57956,17.87396],[77.57637,17.87544],[77.57322,17.86935],[77.56959,17.86725],[77.56961,17.85158],[77.5648,17.85124],[77.56729,17.84523],[77.56051,17.83793],[77.55362,17.82011],[77.54864,17.81953],[77.547,17.82843],[77.54353,17.82767],[77.5289,17.83005],[77.52729,17.82724],[77.52879,17.81308],[77.51746,17.80735],[77.51405,17.80364],[77.50651,17.78535],[77.51227,17.78274],[77.51828,17.78277],[77.52231,17.78046],[77.52711,17.78152],[77.52736,17.78012],[77.53397,17.77826],[77.53827,17.77974],[77.54007,17.77802],[77.53974,17.77442],[77.54468,17.77262],[77.54794,17.76728],[77.55526,17.76359],[77.559,17.76327],[77.56308,17.76582],[77.56887,17.76643],[77.56685,17.75908],[77.56814,17.74891],[77.5703,17.74713],[77.5708,17.74331],[77.5664,17.7396],[77.56568,17.74127],[77.56233,17.74011],[77.56272,17.7424],[77.56031,17.7401],[77.56014,17.74187],[77.55892,17.74139],[77.55648,17.73668],[77.55033,17.73676],[77.54664,17.73201],[77.53762,17.73132],[77.53784,17.72955],[77.53149,17.72986],[77.5223,17.72701],[77.51062,17.71962],[77.51047,17.71771],[77.50596,17.71695],[77.50642,17.71594],[77.5032,17.71715],[77.49656,17.71632],[77.49532,17.7109],[77.49227,17.70798],[77.4865,17.70835],[77.48116,17.70467],[77.47752,17.70561],[77.46814,17.70318],[77.45893,17.69871],[77.45875,17.6964],[77.45294,17.69484],[77.45257,17.69137],[77.45535,17.68949],[77.45391,17.68047],[77.45508,17.6746],[77.44873,17.65768],[77.4485,17.653],[77.44882,17.65097],[77.45054,17.65054],[77.45025,17.64479],[77.45345,17.63603],[77.45648,17.63448],[77.45146,17.62164],[77.44925,17.60918],[77.44477,17.60911],[77.44654,17.59957],[77.44393,17.59269],[77.44452,17.5835],[77.4283,17.5873],[77.45923,17.57964],[77.45987,17.58062],[77.46762,17.57778],[77.47287,17.57275],[77.47664,17.57332],[77.47777,17.56926],[77.49055,17.56936],[77.49298,17.56808],[77.49289,17.56028],[77.49899,17.55196],[77.50023,17.54315],[77.51267,17.5445],[77.51422,17.54934],[77.52366,17.5626],[77.52301,17.5648],[77.52588,17.57342],[77.52854,17.57566],[77.53632,17.57709],[77.54272,17.57145],[77.54771,17.56163],[77.54918,17.55061],[77.55593,17.55538],[77.56208,17.55254],[77.56837,17.55719],[77.57275,17.55648],[77.57404,17.55816],[77.58829,17.55987],[77.58851,17.56517],[77.59195,17.56509],[77.59397,17.56435],[77.59675,17.55418],[77.59486,17.5377],[77.59707,17.53487],[77.60329,17.536],[77.60535,17.53354],[77.6095,17.53257],[77.61256,17.53485],[77.61954,17.52924],[77.63504,17.53308],[77.63928,17.524],[77.64528,17.52259],[77.66299,17.52309],[77.66714,17.51794],[77.66784,17.51384],[77.67834,17.50626],[77.67449,17.51009],[77.68315,17.50722],[77.68413,17.51059],[77.6879,17.5126],[77.69226,17.49734],[77.69012,17.49215],[77.6879,17.49081],[77.68895,17.48439],[77.68675,17.48301],[77.68429,17.47414],[77.65361,17.4827],[77.65217,17.48564],[77.65639,17.50284],[77.65536,17.50516],[77.64854,17.49655],[77.64419,17.47782],[77.64064,17.47661],[77.63872,17.47347],[77.61676,17.47414],[77.61352,17.47206],[77.61164,17.46658],[77.61367,17.46666],[77.61461,17.45975],[77.61441,17.44627],[77.60295,17.44449],[77.58597,17.45295],[77.58509,17.45474],[77.5788,17.45576],[77.57912,17.45819],[77.57492,17.44433],[77.57655,17.43054],[77.57372,17.43002],[77.56798,17.4327],[77.55997,17.43192],[77.53839,17.44132],[77.53695,17.44557],[77.53226,17.44496],[77.51751,17.43229],[77.51427,17.43574],[77.51564,17.41913],[77.51049,17.41398],[77.51322,17.4155],[77.54028,17.40756],[77.52351,17.38804],[77.5273,17.38099],[77.53248,17.38103],[77.53179,17.37454],[77.52999,17.37437],[77.52967,17.37099],[77.52625,17.36833],[77.52419,17.36412],[77.50546,17.35851],[77.50329,17.35524],[77.5024,17.35652],[77.48857,17.35866],[77.48348,17.35487],[77.47472,17.36156],[77.47625,17.36237],[77.47675,17.36833],[77.47928,17.37046],[77.45291,17.37381],[77.45139,17.35272],[77.45449,17.35201],[77.45683,17.34923],[77.45666,17.32325],[77.45154,17.32331],[77.45217,17.31766],[77.44806,17.30666],[77.44579,17.30701],[77.44309,17.30057],[77.44027,17.30045],[77.43733,17.29243],[77.45494,17.28814],[77.45896,17.27946],[77.4544,17.27644],[77.45247,17.27015],[77.44469,17.27065],[77.43659,17.25999],[77.42609,17.2559],[77.42096,17.24487],[77.42069,17.23672],[77.41154,17.23693],[77.40958,17.23987],[77.40776,17.23968],[77.40523,17.23563],[77.38016,17.22108],[77.38197,17.21841],[77.38939,17.21512],[77.40211,17.21396],[77.40201,17.21019],[77.39851,17.21019],[77.3967,17.20739],[77.39389,17.19409],[77.39196,17.19573],[77.38412,17.19582],[77.38228,17.19714],[77.37941,17.19622],[77.37436,17.1975],[77.37159,17.19579],[77.37357,17.19372],[77.37318,17.19055],[77.36912,17.18692],[77.37124,17.18273],[77.36965,17.17635],[77.36533,17.17153],[77.3669,17.16892],[77.36164,17.16403],[77.36362,17.16319],[77.36426,17.15884],[77.36744,17.15916],[77.36613,17.15486],[77.37995,17.15207],[77.37816,17.14014],[77.38478,17.13961],[77.3948,17.13579],[77.40465,17.13545],[77.40744,17.12597],[77.43117,17.11877],[77.44359,17.12349],[77.4596,17.11459],[77.46467,17.10662],[77.46144,17.09145],[77.46484,17.09093],[77.47539,17.08028],[77.4826,17.08],[77.48087,17.07487],[77.47907,17.07497],[77.48373,17.05891],[77.49089,17.05011],[77.4891,17.04941],[77.48968,17.04712],[77.49758,17.04388],[77.4958,17.02945],[77.50315,17.014],[77.50228,17.00976],[77.49798,17.00961],[77.49352,17.00652],[77.49286,17.00427],[77.48691,17.00335],[77.48093,16.99789],[77.47913,16.99463],[77.48283,16.98998],[77.48201,16.9728],[77.473,16.95784],[77.46599,16.95894],[77.465,16.95709],[77.46667,16.95042],[77.46502,16.94422],[77.46811,16.9398],[77.46476,16.92943],[77.46922,16.92801],[77.46956,16.9216],[77.4665,16.91532],[77.45907,16.91747],[77.4585,16.91511],[77.45376,16.91427],[77.45426,16.9105],[77.45794,16.90893],[77.45596,16.90011],[77.45895,16.89489],[77.45576,16.8855],[77.43588,16.88639],[77.46016,16.88516],[77.45961,16.87447],[77.46406,16.85165],[77.45983,16.83833],[77.46133,16.83607],[77.45715,16.83131],[77.46247,16.8233],[77.46209,16.81382],[77.46597,16.8088],[77.46612,16.80549],[77.47282,16.80281],[77.4723,16.7942],[77.47573,16.7919],[77.47424,16.78765],[77.46723,16.78239],[77.44836,16.77808],[77.43896,16.77849],[77.44637,16.76527],[77.44039,16.7518],[77.43723,16.74831],[77.43343,16.73697],[77.42841,16.73323],[77.42702,16.72831],[77.43026,16.7265],[77.43086,16.72361],[77.42611,16.72301],[77.42578,16.72177],[77.42763,16.71682],[77.43306,16.71741],[77.43796,16.71177],[77.43967,16.71345],[77.44122,16.71265],[77.44179,16.7168],[77.4437,16.71639],[77.446,16.72215],[77.45617,16.71637],[77.46369,16.71907],[77.47353,16.71588],[77.4703,16.70533],[77.47049,16.6998],[77.46896,16.69968],[77.46996,16.69686],[77.46865,16.68467],[77.46393,16.67669],[77.44756,16.67908],[77.44388,16.67593],[77.44252,16.66955],[77.43544,16.67056],[77.42396,16.66771],[77.41837,16.66874],[77.41837,16.6583],[77.42994,16.65659],[77.43221,16.65463],[77.43212,16.65171],[77.43997,16.64566],[77.43416,16.64348],[77.43465,16.64119],[77.44277,16.64051],[77.44463,16.64181],[77.44411,16.64017],[77.44521,16.64012],[77.4563,16.64713],[77.45689,16.6497],[77.46121,16.6506],[77.46339,16.65485],[77.47249,16.6522],[77.47395,16.6454],[77.47134,16.64407],[77.47208,16.64261],[77.46885,16.63651],[77.46495,16.6334],[77.46254,16.62659],[77.46091,16.62706],[77.45505,16.62204],[77.45541,16.61563],[77.46078,16.61109],[77.46813,16.60873],[77.46717,16.59908],[77.46362,16.59948],[77.46246,16.59655],[77.46521,16.59366],[77.46393,16.58626],[77.4613,16.58298],[77.45988,16.58521],[77.43941,16.58729],[77.43067,16.57791],[77.42836,16.57264],[77.42319,16.56855],[77.415,16.56716],[77.41499,16.56588],[77.41274,16.56925],[77.40757,16.57128],[77.40406,16.57103],[77.39927,16.56728],[77.39227,16.56977],[77.39236,16.56376],[77.39715,16.56424],[77.39957,16.55531],[77.40388,16.55381],[77.40351,16.55087],[77.41014,16.54873],[77.41789,16.54866],[77.41929,16.53926],[77.41695,16.52049],[77.41591,16.51775],[77.40648,16.52104],[77.39813,16.52099],[77.39071,16.51607],[77.38154,16.5156],[77.37719,16.51386],[77.37272,16.50976],[77.36933,16.48824],[77.35426,16.48858],[77.35177,16.49078],[77.34624,16.49019],[77.34614,16.48796],[77.34237,16.48632],[77.32416,16.48686],[77.3245,16.49125],[77.29835,16.49625],[77.2996,16.48868],[77.29486,16.48152],[77.29432,16.47686],[77.26526,16.47324],[77.25077,16.47565],[77.2479,16.47765],[77.24,16.47657],[77.23813,16.47363],[77.26378,16.45105],[77.26713,16.44206],[77.26889,16.44242],[77.2718,16.43302],[77.2903,16.41282],[77.31433,16.40155],[77.32535,16.401],[77.33781,16.39763],[77.35194,16.38697],[77.37836,16.38949],[77.39903,16.37532],[77.41805,16.37023],[77.42612,16.37207],[77.43303,16.37792],[77.45426,16.38378],[77.4631,16.38518],[77.47734,16.38222],[77.47728,16.38359],[77.48833,16.38607],[77.51962,16.37786],[77.5221,16.37864],[77.52447,16.37721],[77.52311,16.37463],[77.53241,16.36673],[77.57865,16.34232],[77.58655,16.34802],[77.59473,16.34728],[77.59641,16.3376],[77.58836,16.33254],[77.591,16.32547],[77.59516,16.3215],[77.59721,16.31607],[77.5924,16.30278],[77.5932,16.29704],[77.5975,16.29332],[77.58218,16.29098],[77.56924,16.30346],[77.56367,16.30161],[77.54493,16.29189],[77.54077,16.28536],[77.53715,16.26696],[77.52991,16.27258],[77.52948,16.27552],[77.51833,16.27908],[77.51428,16.27772],[77.51284,16.27534],[77.50782,16.2757],[77.50523,16.27272],[77.50535,16.26797],[77.5022,16.26213],[77.4898,16.25525],[77.49262,16.24401],[77.49191,16.22933],[77.49563,16.22646],[77.50337,16.23067],[77.51375,16.23082],[77.51655,16.2264],[77.5152,16.22169],[77.51204,16.22068],[77.50201,16.22418],[77.49894,16.21059],[77.49984,16.19994],[77.49122,16.18438],[77.48853,16.17106],[77.48565,16.16472],[77.48593,16.16301],[77.4902,16.1605],[77.49127,16.1549],[77.48981,16.1487],[77.49158,16.14558],[77.49196,16.13507],[77.48994,16.12001],[77.49249,16.12112],[77.50152,16.12025],[77.51092,16.11296],[77.51449,16.10684],[77.50837,16.10936],[77.50079,16.10654],[77.49652,16.09447],[77.49849,16.08407],[77.50713,16.08033],[77.5073,16.07859],[77.50407,16.07107],[77.50388,16.06377],[77.50161,16.06432],[77.49627,16.05493],[77.49958,16.05347],[77.49729,16.04818],[77.49836,16.04416],[77.49295,16.03984],[77.49471,16.03959],[77.49525,16.03087],[77.49716,16.02995],[77.49684,16.02831],[77.50066,16.02658],[77.50659,16.0104],[77.51419,16.00852],[77.50949,15.9807],[77.51536,15.96796],[77.5193,15.96721],[77.51745,15.94656],[77.51196,15.92372],[77.50103,15.9278],[77.47177,15.9339],[77.46402,15.93308],[77.44671,15.94161],[77.44027,15.94088],[77.43204,15.94536],[77.42166,15.94498],[77.41159,15.9399],[77.39741,15.94268],[77.39363,15.93953],[77.38805,15.93877],[77.38724,15.94282],[77.37524,15.94403],[77.37284,15.94018],[77.36724,15.94438],[77.35594,15.94577],[77.35666,15.95337],[77.30605,15.95248],[77.29791,15.955],[77.28955,15.95145],[77.28248,15.95092],[77.24968,15.96067],[77.2376,15.9546],[77.2035,15.95367],[77.18518,15.95518],[77.17324,15.94999],[77.15622,15.951],[77.14032,15.93628],[77.12515,15.9301],[77.11429,15.92972],[77.1068,15.92689],[77.10777,15.92583],[77.09132,15.91382],[77.0739,15.90496],[77.05635,15.87769],[77.0339,15.85458],[77.03195,15.8489],[77.03376,15.84664],[77.02845,15.8354],[77.02442,15.83764],[77.03588,15.82905],[77.04013,15.83269],[77.04118,15.82991],[77.04715,15.83054],[77.0482,15.82793],[77.05634,15.8304],[77.06545,15.82906],[77.06631,15.82647],[77.06389,15.80223],[77.06688,15.80202],[77.06769,15.79667],[77.06624,15.78482],[77.06024,15.78632],[77.05685,15.76846],[77.05218,15.76974],[77.05075,15.76401],[77.05616,15.76215],[77.05442,15.75652],[77.04782,15.75624],[77.04921,15.72997],[77.0801,15.72747],[77.07902,15.71605],[77.08795,15.71473],[77.08261,15.69873],[77.07869,15.6951],[77.09404,15.69074],[77.09386,15.68905],[77.10857,15.68182],[77.10921,15.67937],[77.11388,15.67746],[77.11369,15.67539],[77.12174,15.67116],[77.12018,15.66709],[77.12834,15.66587],[77.12188,15.63245],[77.12143,15.63095],[77.11997,15.6313],[77.1081,15.63833],[77.107,15.63768],[77.10686,15.64113],[77.10272,15.64303],[77.10234,15.64555],[77.10032,15.64599],[77.09518,15.65207],[77.09011,15.65288],[77.0871,15.6569],[77.08296,15.65891],[77.07121,15.64548],[77.04698,15.63845],[77.03469,15.63681],[77.03474,15.63492],[77.03146,15.6351],[77.03053,15.62119],[77.0327,15.62084],[77.03132,15.61113],[77.0327,15.60996],[77.03213,15.60551],[77.03331,15.60523],[77.02607,15.58077],[77.03105,15.54569],[77.0313,15.50713],[77.03008,15.50274],[77.02852,15.50016],[77.02469,15.50254],[77.01493,15.50248],[77.01056,15.50492],[76.99135,15.50646],[76.97447,15.51072],[76.97373,15.50709],[76.97466,15.49564],[76.97657,15.49071],[76.98443,15.48523],[76.99309,15.48202],[76.99815,15.47758],[76.99942,15.47169],[77.01003,15.44984],[77.0267,15.44123],[77.03461,15.43168],[77.03446,15.42111],[77.02884,15.40548],[77.03308,15.40014],[77.04497,15.39365],[77.04784,15.38807],[77.04826,15.38525],[77.0443,15.37777],[77.04317,15.36336],[77.04417,15.35785],[77.06389,15.34507],[77.06619,15.33729],[77.06413,15.32754],[77.07496,15.32564],[77.10125,15.33335],[77.11353,15.33364],[77.11304,15.32692],[77.11714,15.32539],[77.11719,15.31342],[77.11871,15.31332],[77.11789,15.29438],[77.15177,15.29196],[77.152,15.27543],[77.14761,15.27487],[77.14745,15.27227],[77.15389,15.27349],[77.15424,15.27113],[77.15948,15.26892],[77.15997,15.26721],[77.1679,15.2679],[77.16802,15.25774],[77.144,15.25676],[77.14295,15.25098],[77.14049,15.25147],[77.1357,15.24158],[77.13284,15.24227],[77.13197,15.24007],[77.12622,15.24034],[77.12478,15.22725],[77.14738,15.22472],[77.1469,15.22139],[77.15157,15.21886],[77.15137,15.21549],[77.15476,15.21544],[77.15912,15.20169],[77.16188,15.20185],[77.16652,15.1872],[77.16927,15.17186],[77.16755,15.1717],[77.16693,15.16898],[77.16462,15.16899],[77.16258,15.15782],[77.14104,15.15899],[77.13451,15.14846],[77.13687,15.14806],[77.13749,15.14376],[77.14873,15.14162],[77.14844,15.14023],[77.15088,15.13977],[77.15281,15.13947],[77.15311,15.14114],[77.15693,15.1406],[77.15673,15.12523],[77.14959,15.1113],[77.14239,15.10516],[77.12977,15.10102],[77.12676,15.06815],[77.12015,15.05237],[77.1193,15.04489],[77.11516,15.04597],[77.11301,15.03337],[77.09382,15.03565],[77.09065,15.02905],[77.08518,15.03086],[77.08275,15.0056],[77.07299,15.00531],[77.06083,15.00577],[77.04424,15.00922],[77.04981,15.0225],[77.04935,15.03301],[77.04178,15.03321],[77.03477,15.03107],[77.004,15.03419],[77.0026,15.03114],[76.98624,15.02644],[76.9855,15.01551],[76.96589,15.01813],[76.95036,15.03099],[76.94507,15.03194],[76.93557,15.0301],[76.92364,15.0315],[76.91804,15.03618],[76.90635,15.03333],[76.8945,15.03766],[76.87728,15.03117],[76.87769,15.03626],[76.86942,15.05313],[76.86563,15.05564],[76.86617,15.05979],[76.86448,15.05841],[76.86208,15.05956],[76.86169,15.06239],[76.84985,15.06892],[76.83612,15.07995],[76.82393,15.08064],[76.81226,15.0866],[76.80093,15.09548],[76.79491,15.0913],[76.79269,15.08647],[76.78715,15.08739],[76.78626,15.08148],[76.78335,15.07665],[76.7789,15.07891],[76.7775,15.07708],[76.78065,15.07488],[76.77508,15.07041],[76.77348,15.05912],[76.77671,15.05422],[76.78057,15.04261],[76.78372,15.04237],[76.78604,15.03718],[76.78597,15.02751],[76.7905,15.02074],[76.7876,15.00854],[76.78364,15.00414],[76.77852,15.00671],[76.77523,14.99384],[76.77216,14.99057],[76.76097,14.99007],[76.76003,14.98928],[76.76291,14.98727],[76.7634,14.98029],[76.76671,14.97784],[76.7664,14.97461],[76.77556,14.9749],[76.80022,14.96819],[76.81801,14.9693],[76.8284,14.95607],[76.83402,14.95682],[76.8341,14.95961],[76.8413,14.96627],[76.86158,14.97012],[76.86687,14.96956],[76.866,14.95751],[76.86987,14.9377],[76.86387,14.89538],[76.8473,14.89632],[76.8454,14.88977],[76.84548,14.88741],[76.85252,14.88723],[76.85138,14.88387],[76.85326,14.88376],[76.85403,14.8692],[76.85699,14.86888],[76.85425,14.85494],[76.85438,14.84098],[76.84863,14.84148],[76.84252,14.83623],[76.84504,14.83478],[76.84573,14.83205],[76.84599,14.82223],[76.85466,14.81785],[76.85431,14.80991],[76.8483,14.80922],[76.83752,14.81082],[76.83732,14.79121],[76.833,14.79018],[76.83222,14.7928],[76.83063,14.79307],[76.81866,14.79265],[76.8208,14.78883],[76.81701,14.78775],[76.80278,14.78579],[76.78294,14.78649],[76.78946,14.77232],[76.79013,14.7649],[76.7886,14.75983],[76.79397,14.75038],[76.79122,14.74646],[76.7944,14.74603],[76.78651,14.71031],[76.78645,14.69824],[76.7769,14.68069],[76.77081,14.67531],[76.77553,14.67121],[76.77194,14.63546],[76.76637,14.61648],[76.76523,14.60187],[76.76885,14.60089],[76.78019,14.59299],[76.78031,14.59719],[76.78152,14.59669],[76.78228,14.58364],[76.78476,14.57513],[76.78895,14.57013],[76.78779,14.56787],[76.79145,14.55424],[76.79829,14.54845],[76.80668,14.5319],[76.81065,14.53287],[76.81537,14.53058],[76.81872,14.5316],[76.82255,14.52662],[76.8315,14.52941],[76.83425,14.52609],[76.83325,14.52204],[76.84171,14.51921],[76.84948,14.51149],[76.85131,14.51192],[76.85563,14.50922],[76.86091,14.49716],[76.86659,14.47563],[76.86878,14.47447],[76.88438,14.47721],[76.88377,14.47933],[76.88626,14.48349],[76.9045,14.48968],[76.92429,14.49088],[76.94885,14.48889],[76.95007,14.48674],[76.97495,14.48523],[76.97565,14.4775],[76.97432,14.4737],[76.9719,14.46819],[76.96855,14.46519],[76.96872,14.46225],[76.96011,14.45091],[76.9526,14.45278],[76.9449,14.45147],[76.94775,14.41357],[76.94674,14.40576],[76.94273,14.39968],[76.93186,14.41077],[76.91278,14.42184],[76.90487,14.40674],[76.89722,14.39754],[76.88741,14.39554],[76.88871,14.36274],[76.88482,14.3475],[76.88759,14.34639],[76.90335,14.32284],[76.90725,14.32317],[76.92593,14.3149],[76.94508,14.31262],[76.95641,14.29446],[76.94664,14.28621],[76.93846,14.28332],[76.93675,14.28041],[76.92792,14.27941],[76.9247,14.27407],[76.93583,14.2591],[76.94004,14.24424],[76.95064,14.24296],[76.9609,14.2449],[76.97096,14.24278],[76.97517,14.24553],[76.98558,14.24743],[76.99337,14.2416],[76.99871,14.24114],[77.0056,14.23577],[77.00501,14.23072],[77.00564,14.2359],[77.00852,14.23782],[77.01232,14.23756],[77.02207,14.24133],[77.03077,14.24231],[77.03058,14.2441],[77.03639,14.24471],[77.03597,14.24679],[77.04398,14.24649],[77.05822,14.24392],[77.05745,14.24068],[77.06041,14.23591],[77.06143,14.22914],[77.06981,14.23172],[77.07643,14.22342],[77.08073,14.21503],[77.08022,14.2132],[77.1037,14.22003],[77.10726,14.21956],[77.11532,14.22327],[77.11684,14.22612],[77.11639,14.23733],[77.11928,14.24373],[77.11748,14.25067],[77.11432,14.25298],[77.11808,14.25623],[77.11964,14.26266],[77.11117,14.26155],[77.11205,14.26517],[77.11006,14.26832],[77.11557,14.27385],[77.11552,14.29287],[77.12431,14.29861],[77.12957,14.30486],[77.13588,14.32318],[77.13659,14.33148],[77.13484,14.33606],[77.13967,14.33996],[77.15293,14.33955],[77.1534,14.34152],[77.15495,14.34028],[77.15691,14.34191],[77.16552,14.34182],[77.16516,14.33806],[77.16881,14.33793],[77.16986,14.33502],[77.17058,14.33603],[77.17832,14.33493],[77.18163,14.33162],[77.18122,14.33029],[77.18438,14.33242],[77.19736,14.32104],[77.21458,14.31856],[77.22879,14.32161],[77.23359,14.31812],[77.23975,14.31729],[77.24521,14.31751],[77.25389,14.32233],[77.25388,14.32556],[77.25872,14.32771],[77.25824,14.33079],[77.26246,14.33259],[77.26925,14.33205],[77.27526,14.33475],[77.27676,14.33731],[77.28482,14.33768],[77.28529,14.34018],[77.28684,14.34035],[77.28943,14.31032],[77.28852,14.30029],[77.2829,14.28719],[77.28342,14.28222],[77.3049,14.28339],[77.31346,14.28113],[77.33048,14.28007],[77.33851,14.27728],[77.36331,14.27605],[77.36144,14.27153],[77.36249,14.26048],[77.36485,14.25758],[77.36497,14.25466],[77.36071,14.24107],[77.36041,14.2344],[77.36364,14.23436],[77.37743,14.22793],[77.38406,14.22064],[77.38296,14.20754],[77.38766,14.20217],[77.38724,14.19972],[77.3905,14.19908],[77.40981,14.20591],[77.41409,14.20527],[77.41886,14.21141],[77.4169,14.22126],[77.41752,14.22564],[77.41182,14.22758],[77.41122,14.23221],[77.4091,14.23166],[77.4086,14.25997],[77.407,14.25976],[77.4051,14.26686],[77.39534,14.26636],[77.38815,14.2697],[77.38686,14.2725],[77.38918,14.27462],[77.38993,14.27898],[77.38846,14.28224],[77.38677,14.28189],[77.3841,14.29576],[77.38224,14.29888],[77.37761,14.30133],[77.37691,14.3041],[77.37924,14.32163],[77.38998,14.33321],[77.40061,14.33734],[77.40707,14.33817],[77.41129,14.3363],[77.41259,14.33742],[77.4204,14.33252],[77.42331,14.32814],[77.42822,14.32916],[77.43096,14.31327],[77.44301,14.31802],[77.44658,14.31746],[77.44663,14.30344],[77.44494,14.2954],[77.44668,14.29327],[77.44834,14.28263],[77.45055,14.28275],[77.4499,14.28081],[77.45726,14.28013],[77.46375,14.28213],[77.47944,14.29295],[77.48349,14.29057],[77.48734,14.28195],[77.49053,14.28214],[77.49158,14.27814],[77.49823,14.27955],[77.50395,14.26416],[77.50142,14.26218],[77.50301,14.25878],[77.50042,14.24746],[77.49629,14.23637],[77.49214,14.2343],[77.49357,14.23322],[77.49236,14.23086],[77.495,14.23117],[77.49393,14.22471],[77.50291,14.20834],[77.50121,14.20316],[77.504,14.19237],[77.51558,14.1867],[77.51674,14.18342],[77.51667,14.18213],[77.51458,14.18202],[77.51352,14.17611],[77.51189,14.17534],[77.50378,14.15772],[77.49007,14.16296],[77.48677,14.16206],[77.48107,14.16474],[77.46761,14.1653],[77.46695,14.17212],[77.45749,14.17],[77.44561,14.17213],[77.42969,14.17092],[77.42302,14.17361],[77.42268,14.17675],[77.42035,14.17688],[77.40584,14.17196],[77.39915,14.17434],[77.39398,14.17429],[77.39718,14.16975],[77.39763,14.16008],[77.38904,14.15961],[77.38763,14.15383],[77.3849,14.15328],[77.3802,14.13683],[77.36338,14.13113],[77.35535,14.12992],[77.35197,14.1312],[77.35107,14.12809],[77.35092,14.11862],[77.34884,14.11394],[77.34985,14.10932],[77.34694,14.10569],[77.34694,14.10378],[77.34982,14.10309],[77.35307,14.10878],[77.36284,14.11548],[77.37657,14.119],[77.3802,14.12274],[77.38842,14.12608],[77.39665,14.12535],[77.39649,14.12333],[77.40056,14.12016],[77.39751,14.10977],[77.38497,14.09638],[77.38118,14.09794],[77.37515,14.07887],[77.36336,14.07309],[77.35964,14.06211],[77.35383,14.06252],[77.34444,14.05936],[77.34049,14.0602],[77.33505,14.04568],[77.33219,14.03094],[77.37417,14.01834],[77.38667,14.01546],[77.3897,14.01641],[77.38817,14.00646],[77.37949,13.99013],[77.38135,13.97593],[77.39587,13.98369],[77.40974,13.98366],[77.42693,13.98675],[77.42864,13.98302],[77.43659,13.981],[77.43997,13.97579],[77.43766,13.9672],[77.43831,13.96357],[77.43637,13.95995],[77.43611,13.95651],[77.43803,13.95556],[77.43567,13.94838],[77.42974,13.94495],[77.42517,13.94617],[77.41902,13.94477],[77.41163,13.94551],[77.41507,13.93548],[77.41584,13.924],[77.43066,13.92085],[77.43403,13.91753],[77.43455,13.91203],[77.42917,13.90867],[77.42868,13.9061],[77.42246,13.90284],[77.42071,13.89946],[77.41089,13.89666],[77.40566,13.88924],[77.39889,13.88821],[77.4,13.89594],[77.39791,13.90637],[77.36733,13.90321],[77.35433,13.90424],[77.35283,13.91375],[77.35025,13.91323],[77.34747,13.91556],[77.35357,13.92832],[77.36149,13.93879],[77.36547,13.94702],[77.37182,13.95353],[77.35071,13.95823],[77.35314,13.96252],[77.35212,13.96777],[77.35481,13.97715],[77.35932,13.98367],[77.36062,13.99044],[77.34748,13.99464],[77.34828,13.99676],[77.34686,13.99408],[77.33667,13.99579],[77.3374,14.0052],[77.32962,14.01267],[77.32172,14.02448],[77.3222,14.03042],[77.30656,14.03198],[77.3018,14.02804],[77.29824,14.02185],[77.29146,14.02009],[77.28191,14.01325],[77.27584,14.013],[77.27932,14.02717],[77.27902,14.03206],[77.277,14.0326],[77.27749,14.03446],[77.27251,14.03464],[77.26595,14.03159],[77.26491,14.02923],[77.26058,14.02929],[77.25619,14.02265],[77.24856,14.01874],[77.24533,14.01171],[77.22207,14.01399],[77.21567,14.0099],[77.21212,14.01053],[77.20253,14.00796],[77.17289,14.01272],[77.17091,14.012],[77.17318,14.00096],[77.1602,14.00199],[77.15107,14.0009],[77.14148,14.00377],[77.14087,14.01831],[77.13664,14.02159],[77.13161,14.04522],[77.12689,14.04748],[77.10091,14.04486],[77.09413,14.04223],[77.0796,14.04268],[77.07569,14.04374],[77.07642,14.05337],[77.06917,14.05209],[77.04254,14.05729],[77.03183,14.05707],[77.02566,14.06601],[77.02884,14.07768],[77.02872,14.08874],[77.02443,14.08951],[77.023,14.09253],[77.01693,14.09477],[77.01918,14.09652],[77.01384,14.09967],[77.02426,14.11294],[77.02185,14.12242],[77.02593,14.12404],[77.0262,14.13011],[77.02086,14.13123],[77.02045,14.15124],[77.0222,14.15273],[77.02071,14.15699],[77.0262,14.17468],[77.02245,14.1773],[77.02244,14.17728],[77.0049,14.18422],[76.99461,14.17863],[76.9813,14.17871],[76.96776,14.18312],[76.96256,14.18193],[76.95854,14.18384],[76.95749,14.18858],[76.95091,14.19333],[76.94741,14.19819],[76.9428,14.19593],[76.94231,14.19064],[76.94475,14.18576],[76.94229,14.17877],[76.94253,14.17324],[76.92214,14.16945],[76.91963,14.16411],[76.91293,14.16715],[76.89478,14.16766],[76.89302,14.16352],[76.8912,14.14308],[76.8866,14.13776],[76.88952,14.13561],[76.904,14.1338],[76.91512,14.12817],[76.91737,14.12854],[76.92525,14.13642],[76.93575,14.12882],[76.93632,14.1243],[76.94424,14.12043],[76.94685,14.11219],[76.95269,14.10556],[76.95542,14.09916],[76.95076,14.09229],[76.95018,14.09206],[76.95905,14.09165],[76.97356,14.0837],[76.97532,14.0741],[76.97755,14.07095],[76.97659,14.06548],[76.97189,14.05852],[76.95853,14.05752],[76.94997,14.05366],[76.93199,14.05451],[76.93338,14.04445],[76.93062,14.03088],[76.93431,14.03316],[76.94033,14.02969],[76.94379,14.02997],[76.94502,14.02102],[76.95004,14.01459],[76.95741,14.01193],[76.96591,14.01125],[76.98356,14.00022],[76.99502,13.99092],[76.9993,13.98993],[76.99357,13.96279],[77.00583,13.95669],[77.01379,13.9555],[77.02385,13.94032],[77.03664,13.93711],[77.03999,13.93384],[77.0468,13.90591],[77.03124,13.90532],[77.022,13.90279],[77.02333,13.89586],[77.02049,13.89257],[77.01951,13.88715],[77.01613,13.88458],[77.01844,13.87229],[77.01315,13.87154],[77.01199,13.86389],[77.01394,13.85881],[77.00566,13.8515],[77.00454,13.85255],[76.99588,13.8484],[76.99241,13.84898],[76.99039,13.83724],[76.98669,13.83191],[76.97807,13.82676],[76.97653,13.81699],[76.98979,13.8131],[76.99139,13.80289],[76.98992,13.79575],[76.98487,13.79074],[76.99132,13.77763],[76.994,13.76019],[76.99805,13.75364],[76.99601,13.75373],[76.99719,13.74734],[76.99919,13.74549],[77.0166,13.73821],[77.01705,13.74715],[77.019,13.7492],[77.01727,13.75557],[77.02344,13.76915],[77.02429,13.7791],[77.04303,13.77774],[77.04352,13.7709],[77.04703,13.77061],[77.0522,13.762],[77.05869,13.76002],[77.05766,13.75265],[77.05971,13.75259],[77.06119,13.74742],[77.06513,13.74483],[77.06982,13.74555],[77.08537,13.74319],[77.08332,13.74899],[77.08526,13.76151],[77.08976,13.76247],[77.09047,13.76718],[77.09738,13.76689],[77.10145,13.76838],[77.10774,13.76732],[77.11808,13.76466],[77.12082,13.76179],[77.13691,13.75848],[77.1398,13.76112],[77.14104,13.76527],[77.15133,13.76636],[77.17336,13.76206],[77.17906,13.78292],[77.17333,13.78541],[77.16375,13.79615],[77.16224,13.80437],[77.15779,13.8056],[77.16239,13.80827],[77.16266,13.81115],[77.15963,13.81627],[77.16287,13.81658],[77.16775,13.82077],[77.17059,13.82765],[77.16974,13.82971],[77.16457,13.83265],[77.15328,13.83416],[77.15467,13.84447],[77.13975,13.84689],[77.13229,13.8463],[77.12973,13.85511],[77.12819,13.85617],[77.13673,13.85661],[77.14564,13.86808],[77.1607,13.86576],[77.16737,13.86232],[77.17159,13.86996],[77.16893,13.88085],[77.16883,13.89009],[77.16218,13.89887],[77.16225,13.90734],[77.16972,13.92016],[77.185,13.92459],[77.18842,13.9128],[77.19068,13.91153],[77.18616,13.89343],[77.18585,13.87709],[77.18178,13.87001],[77.2006,13.86336],[77.20747,13.87326],[77.20611,13.87381],[77.21021,13.87807],[77.20978,13.8842],[77.21525,13.88582],[77.21685,13.88407],[77.21522,13.86754],[77.21981,13.8679],[77.22469,13.88273],[77.22647,13.88181],[77.23007,13.89204],[77.23111,13.90284],[77.23558,13.90439],[77.23653,13.90116],[77.24517,13.90358],[77.24862,13.90144],[77.24727,13.89225],[77.24831,13.88758],[77.24513,13.88394],[77.2452,13.88194],[77.24764,13.88068],[77.24865,13.87274],[77.24654,13.86768],[77.25895,13.86243],[77.25617,13.85154],[77.25709,13.84662],[77.27055,13.84801],[77.28018,13.85094],[77.29023,13.84782],[77.29499,13.85763],[77.29637,13.85683],[77.30334,13.86185],[77.31021,13.86324],[77.31106,13.86689],[77.31634,13.86327],[77.31875,13.85694],[77.32117,13.85623],[77.32124,13.84697],[77.32488,13.84534],[77.32304,13.83977],[77.3244,13.83959],[77.32551,13.83278],[77.33682,13.83266],[77.34536,13.84101],[77.3531,13.8455],[77.35713,13.85108],[77.36302,13.854],[77.37657,13.85092],[77.38084,13.84718],[77.37951,13.84001],[77.38632,13.83854],[77.40141,13.84061],[77.4159,13.83906],[77.42175,13.84159],[77.42725,13.84091],[77.42995,13.84485],[77.43377,13.8429],[77.43239,13.83694],[77.42808,13.83187],[77.42893,13.82745],[77.42408,13.82331],[77.41747,13.80777],[77.41822,13.80578],[77.4195,13.80944],[77.42866,13.80666],[77.42824,13.80336],[77.42382,13.80139],[77.42261,13.79878],[77.43727,13.79606],[77.44069,13.80575],[77.44543,13.81051],[77.4539,13.80949],[77.45713,13.8071],[77.46473,13.80749],[77.46493,13.80245],[77.4608,13.80265],[77.45679,13.78856],[77.46154,13.78798],[77.46021,13.78055],[77.46441,13.76953],[77.46503,13.75871],[77.47046,13.75805],[77.4678,13.75309],[77.46656,13.74023],[77.46437,13.73396],[77.46506,13.71107],[77.45559,13.71023],[77.45009,13.71136],[77.45081,13.70456],[77.45251,13.70417],[77.45288,13.69592],[77.45471,13.69532],[77.45578,13.69098],[77.45536,13.68283],[77.4371,13.68412],[77.45334,13.68219],[77.47233,13.68627],[77.48833,13.68677],[77.48859,13.68972],[77.49113,13.6904],[77.48775,13.6977],[77.48826,13.7045],[77.48588,13.70722],[77.48595,13.71113],[77.48319,13.71238],[77.48348,13.71569],[77.51448,13.71294],[77.5119,13.69725],[77.51952,13.69644],[77.5214,13.69049],[77.52881,13.69312],[77.53399,13.70691],[77.5364,13.73071],[77.52802,13.74049],[77.52208,13.74467],[77.52506,13.7533],[77.54199,13.7561],[77.54451,13.75478],[77.54912,13.74897],[77.5491,13.74106],[77.55371,13.73581],[77.56043,13.72229],[77.56485,13.72634],[77.5713,13.73835],[77.57607,13.73846],[77.58069,13.73413],[77.58678,13.73358],[77.59597,13.74832],[77.60009,13.75105],[77.61339,13.75201],[77.62358,13.73616],[77.62752,13.73466],[77.63097,13.73611],[77.6322,13.73899],[77.64166,13.74235],[77.64201,13.74829],[77.63424,13.75034],[77.63028,13.75395],[77.62504,13.75319],[77.61846,13.75503],[77.61724,13.76184],[77.6205,13.76814],[77.64686,13.77893],[77.65165,13.7839],[77.66034,13.78517],[77.66876,13.78385],[77.67965,13.78713],[77.68078,13.77886],[77.67839,13.76852],[77.67438,13.76245],[77.67109,13.76065],[77.67914,13.76223],[77.70302,13.77297],[77.70312,13.76419],[77.70869,13.74075],[77.71736,13.74087],[77.71812,13.75109],[77.7199,13.75191],[77.71916,13.75513],[77.7205,13.75693],[77.71968,13.76501],[77.72182,13.76774],[77.71844,13.78283],[77.71924,13.78806],[77.72211,13.78946],[77.71911,13.80056],[77.72504,13.80081],[77.72909,13.80275],[77.735,13.81019],[77.74085,13.81238],[77.74484,13.81047],[77.74479,13.81241],[77.7413,13.814],[77.74196,13.81478],[77.74646,13.81359],[77.74529,13.80964],[77.74679,13.80948],[77.76409,13.81709],[77.78243,13.81783],[77.78725,13.8205],[77.78909,13.82175],[77.78905,13.82928],[77.78446,13.83351],[77.78226,13.84389],[77.79137,13.84838],[77.79428,13.84768],[77.79898,13.8492],[77.81234,13.8475],[77.81813,13.85604],[77.8196,13.86273],[77.8288,13.86416],[77.83661,13.86963],[77.82674,13.87416],[77.82658,13.87562],[77.83538,13.88089],[77.83101,13.89767],[77.81981,13.90122],[77.81603,13.90424],[77.81687,13.91207],[77.81332,13.91834],[77.81532,13.93299],[77.82545,13.94481],[77.83629,13.93624],[77.84591,13.93554],[77.85665,13.93773],[77.86504,13.93621],[77.89569,13.94422],[77.89832,13.93531],[77.89611,13.92093],[77.89964,13.91664],[77.90517,13.91577],[77.91103,13.90997],[77.91718,13.90926],[77.92169,13.90631],[77.92661,13.90541],[77.93868,13.9207],[77.94762,13.93701],[77.9566,13.93957],[77.9567,13.93799],[77.95952,13.93779],[77.9611,13.94157],[77.96202,13.95544],[77.96804,13.95987],[77.97999,13.95858],[77.98749,13.95575],[77.98492,13.94964],[77.98101,13.9293],[77.98132,13.92736],[77.98469,13.92509],[77.98474,13.90813],[77.98285,13.90357],[77.98572,13.90163],[77.98291,13.89572],[77.9558,13.89091],[77.94959,13.88687],[77.94898,13.87537],[77.95369,13.85431],[77.95369,13.83673],[77.95593,13.83633],[77.95576,13.82998],[77.95172,13.82849],[77.95233,13.82688],[77.96022,13.82933],[77.97076,13.82852],[77.97645,13.83],[77.97835,13.83755],[77.98382,13.84857],[77.98767,13.85385],[77.98894,13.85366],[77.9892,13.86138],[77.99111,13.86285],[77.99261,13.86825],[77.99878,13.86911],[78.00022,13.87293],[78.01286,13.87129],[78.01569,13.86594],[78.02048,13.86395],[78.03195,13.86425],[78.04095,13.86022],[78.04639,13.86204],[78.04672,13.86673],[78.04985,13.87069],[78.05136,13.88177],[78.04873,13.89621],[78.0608,13.8922],[78.06245,13.89054],[78.06201,13.88795],[78.07255,13.88494],[78.07875,13.88134],[78.08233,13.86175],[78.09365,13.8648],[78.09984,13.86211],[78.11552,13.86267],[78.11718,13.85202],[78.12202,13.84426],[78.12508,13.83045],[78.11523,13.81342],[78.11383,13.80755],[78.12289,13.7992],[78.12578,13.78605],[78.12121,13.78048],[78.11786,13.76931],[78.11225,13.76328],[78.10011,13.7587],[78.09221,13.74216],[78.09848,13.73807],[78.10461,13.73642],[78.11041,13.72624],[78.1154,13.72299],[78.12059,13.71497],[78.11469,13.70341],[78.11311,13.69273],[78.09284,13.69123],[78.09219,13.69251],[78.0858,13.69206],[78.0759,13.69846],[78.0697,13.69755],[78.0693,13.69113],[78.07093,13.68856],[78.07341,13.688],[78.0708,13.68208],[78.06571,13.67672],[78.07648,13.67332],[78.0771,13.66798],[78.08951,13.65948],[78.0873,13.65243],[78.08709,13.64358],[78.09858,13.643],[78.10226,13.65166],[78.108,13.65301],[78.11385,13.65761],[78.12518,13.65586],[78.13328,13.66014],[78.14768,13.65679],[78.15565,13.65795],[78.1675,13.65562],[78.16882,13.65411],[78.16738,13.64308],[78.16879,13.64111],[78.16763,13.6376],[78.16859,13.63344],[78.16723,13.63259],[78.17716,13.63015],[78.20395,13.62851],[78.20174,13.62009],[78.20367,13.61756],[78.2035,13.60631],[78.20146,13.602],[78.19002,13.58994],[78.18946,13.57088],[78.19331,13.56418],[78.20126,13.56349],[78.19404,13.56413],[78.20339,13.56838],[78.20775,13.57639],[78.21183,13.57884],[78.21612,13.59106],[78.21959,13.5926],[78.22162,13.58943],[78.23207,13.58589],[78.23376,13.5915],[78.23323,13.59534],[78.23151,13.59657],[78.23391,13.59945],[78.23878,13.59752],[78.24016,13.59831],[78.25706,13.58911],[78.25794,13.5847],[78.25954,13.58457],[78.27051,13.5883],[78.29713,13.5904],[78.31059,13.59323],[78.3155,13.59187],[78.32359,13.59338],[78.34764,13.58911],[78.34942,13.58579],[78.35234,13.58523],[78.35625,13.58796],[78.36501,13.58819],[78.36527,13.58952],[78.37989,13.59215],[78.39159,13.59148],[78.39549,13.5885],[78.40175,13.58815],[78.40159,13.57804],[78.40417,13.57784],[78.40184,13.56842],[78.39332,13.55197],[78.39514,13.54075],[78.38413,13.52508],[78.3816,13.52509],[78.38346,13.51605],[78.37323,13.50894],[78.37816,13.50189],[78.37842,13.48488],[78.37463,13.48449],[78.3777,13.48019],[78.37067,13.47054],[78.37208,13.46387],[78.37497,13.46216],[78.37336,13.4518],[78.37577,13.44445],[78.37901,13.44283],[78.37872,13.44071],[78.37575,13.44107],[78.37591,13.43455],[78.37842,13.43097],[78.37728,13.42478],[78.38014,13.41931],[78.37902,13.41585],[78.38029,13.41122],[78.38203,13.40986],[78.38081,13.39892],[78.38201,13.39666],[78.37929,13.38373],[78.37329,13.37906],[78.36918,13.3723],[78.36582,13.36076],[78.36602,13.35838],[78.3695,13.35755],[78.37119,13.36182],[78.38003,13.36237],[78.39546,13.35312],[78.39413,13.34994],[78.39522,13.35155],[78.40812,13.34619],[78.40889,13.34271],[78.40736,13.33511],[78.40358,13.3354],[78.40087,13.33185],[78.40081,13.32767],[78.39381,13.33385],[78.38489,13.33446],[78.3892,13.33917],[78.38848,13.34215],[78.38644,13.34271],[78.38348,13.34244],[78.38006,13.33918],[78.37774,13.33157],[78.38807,13.33223],[78.3935,13.32369],[78.39963,13.32014],[78.40135,13.31539],[78.41702,13.31935],[78.41919,13.32064],[78.42234,13.32834],[78.42828,13.33095],[78.43624,13.33],[78.44095,13.32829],[78.44077,13.32183],[78.44417,13.30809],[78.4507,13.30874],[78.45779,13.31306],[78.46668,13.31488],[78.47028,13.31907],[78.4767,13.32228],[78.48445,13.32026],[78.48453,13.31398],[78.48133,13.30927],[78.48005,13.30122],[78.49665,13.29839],[78.49891,13.29965],[78.50433,13.29172],[78.51389,13.29075],[78.51329,13.2854],[78.5198,13.28314],[78.52144,13.27372],[78.52649,13.27139],[78.52677,13.26833],[78.53165,13.26647],[78.5369,13.27421],[78.53919,13.28803],[78.5463,13.28789],[78.55468,13.28306],[78.56189,13.28894],[78.56494,13.29605],[78.56558,13.302],[78.56352,13.30939],[78.56543,13.31197],[78.56925,13.30927],[78.57366,13.29925],[78.57741,13.29515],[78.57628,13.28491],[78.57862,13.28025],[78.58683,13.28011],[78.58774,13.27242],[78.58413,13.25881],[78.57933,13.25281],[78.57059,13.24729],[78.57147,13.24172],[78.56861,13.23743],[78.56644,13.22417],[78.56641,13.22019],[78.57777,13.21839],[78.57715,13.21645],[78.57937,13.21702],[78.57925,13.21317],[78.57529,13.21106],[78.57084,13.21244],[78.568,13.20116],[78.55944,13.19872],[78.55103,13.20041],[78.54966,13.19272],[78.55021,13.19064],[78.5553,13.18885],[78.56698,13.19159],[78.56691,13.19294],[78.57199,13.19039],[78.57586,13.18655],[78.57615,13.17449],[78.57659,13.17231],[78.57892,13.17105],[78.57963,13.16708],[78.57567,13.1667],[78.57296,13.16839],[78.56865,13.16543],[78.56821,13.16189],[78.5497,13.16392],[78.54059,13.15347],[78.5474,13.14886],[78.54503,13.14183],[78.53091,13.14176],[78.52775,13.13922],[78.52369,13.13055],[78.51784,13.13162],[78.51708,13.12841],[78.51962,13.11973],[78.52376,13.11841],[78.52299,13.11499],[78.53068,13.11154],[78.53168,13.10927],[78.53826,13.10833],[78.53882,13.10583],[78.53115,13.10583],[78.53019,13.10379],[78.52435,13.10101],[78.52273,13.09903],[78.52385,13.09471],[78.51608,13.0974],[78.50984,13.09206],[78.50915,13.07852],[78.51115,13.07787],[78.51524,13.07174],[78.51555,13.06263],[78.49716,13.06143],[78.49386,13.05699],[78.4899,13.0549],[78.48927,13.05213],[78.47858,13.05507],[78.47475,13.04534],[78.4691,13.04328],[78.46431,13.04487],[78.46209,13.0431],[78.46079,13.02605],[78.4621,13.02586],[78.46515,13.01652],[78.4631,13.00552],[78.46792,13.00448],[78.46766,12.99817],[78.47048,12.9974],[78.47321,12.99188],[78.47503,12.99113],[78.47023,12.98218],[78.46947,12.98289],[78.46772,12.97514],[78.453,12.97677],[78.43513,12.98194],[78.43202,12.97689],[78.4344,12.97355],[78.43248,12.96845],[78.43874,12.96328],[78.42956,12.95766],[78.41985,12.95885],[78.4224,12.95445],[78.42059,12.9478],[78.41388,12.94817],[78.41135,12.9448],[78.41376,12.93826],[78.41355,12.93326],[78.41749,12.93045],[78.41804,12.9226],[78.4226,12.9246],[78.42752,12.93133],[78.43746,12.92881],[78.44479,12.91973],[78.45223,12.91768],[78.4593,12.90876],[78.4664,12.90616],[78.46917,12.89955],[78.4684,12.89336],[78.46967,12.88995],[78.46454,12.86623],[78.46236,12.87048],[78.46419,12.8783],[78.45654,12.88664],[78.44733,12.89173],[78.44868,12.89867],[78.44424,12.90235],[78.44736,12.90564],[78.44554,12.91204],[78.4387,12.91322],[78.43515,12.9111],[78.43591,12.90869],[78.43428,12.90474],[78.4305,12.90496],[78.42863,12.90238],[78.414,12.903],[78.41199,12.90376],[78.40922,12.90895],[78.39894,12.91666],[78.39694,12.90661],[78.38964,12.90612],[78.38634,12.90814],[78.38504,12.91204],[78.3762,12.91467],[78.37599,12.9175],[78.36236,12.93452],[78.35591,12.94014],[78.35418,12.93972],[78.34961,12.93589],[78.35403,12.93006],[78.34972,12.92922],[78.34618,12.91339],[78.34126,12.9126],[78.34374,12.90882],[78.34059,12.90416],[78.33128,12.90121],[78.32497,12.90373],[78.32263,12.89783],[78.32447,12.89326],[78.32327,12.89024],[78.32028,12.8889],[78.32015,12.88687],[78.32364,12.88479],[78.33062,12.88437],[78.33327,12.88968],[78.33758,12.88671],[78.33715,12.88265],[78.3323,12.88029],[78.33159,12.87484],[78.32779,12.87414],[78.31368,12.87651],[78.31533,12.86579],[78.31315,12.85871],[78.28087,12.85984],[78.26878,12.86837],[78.26357,12.86115],[78.25171,12.86334],[78.25263,12.83128],[78.24509,12.78783],[78.2374,12.76727],[78.23062,12.76064],[78.22306,12.76686],[78.21246,12.76398],[78.20299,12.77075],[78.19537,12.774],[78.19151,12.77407],[78.18855,12.77149],[78.1772,12.77623],[78.17071,12.77361],[78.16775,12.77056],[78.15042,12.77949],[78.14307,12.78182],[78.1337,12.78207],[78.1307,12.78434],[78.12982,12.78813],[78.12522,12.79088],[78.12484,12.79764],[78.12016,12.80104],[78.10803,12.80425],[78.10332,12.80891],[78.08828,12.81741],[78.08878,12.82366],[78.08557,12.82548],[78.08678,12.82718],[78.08563,12.83168],[78.07479,12.83071],[78.07562,12.83643],[78.07792,12.83813],[78.074,12.84112],[78.05945,12.8431],[78.05825,12.85121],[78.05325,12.85338],[78.05053,12.85115],[78.04989,12.84806],[78.04313,12.84922],[78.03841,12.85174],[78.03113,12.85221],[78.03058,12.85709],[78.02716,12.85788],[78.02317,12.85483],[78.02623,12.85031],[78.03019,12.84896],[78.02394,12.84125],[78.0192,12.84345],[78.01858,12.83067],[78.01458,12.82911],[78.01067,12.82981],[78.00376,12.82539],[78.0037,12.8232],[78.008,12.81963],[78.01262,12.81819],[78.01532,12.8138],[78.01256,12.80762],[78.0099,12.80509],[78.00533,12.80803],[77.99695,12.8082],[77.99547,12.80661],[77.98895,12.8086],[77.99121,12.82184],[77.98784,12.82228],[77.9796,12.82739],[77.98106,12.83481],[77.97458,12.83541],[77.97344,12.83307],[77.96445,12.83322],[77.96202,12.83663],[77.96561,12.84834],[77.96354,12.85051],[77.95932,12.84866],[77.95328,12.85018],[77.95376,12.85259],[77.95117,12.85228],[77.95302,12.85547],[77.95226,12.85669],[77.94583,12.85775],[77.941,12.85579],[77.94068,12.84556],[77.94677,12.83812],[77.94109,12.82744],[77.94115,12.82323],[77.93097,12.82524],[77.92615,12.8306],[77.92285,12.83027],[77.92139,12.82797],[77.91874,12.83009],[77.91778,12.83954],[77.92437,12.85075],[77.9233,12.85569],[77.92863,12.85749],[77.93161,12.86215],[77.93612,12.86196],[77.93651,12.86683],[77.94178,12.86747],[77.94176,12.87287],[77.92867,12.87429],[77.92792,12.87641],[77.92789,12.88156],[77.93369,12.88042],[77.93549,12.88144],[77.9362,12.88741],[77.93498,12.88809],[77.92851,12.89087],[77.92573,12.89026],[77.92186,12.88402],[77.909,12.88526],[77.90864,12.87892],[77.89496,12.87834],[77.89098,12.87008],[77.88541,12.87081],[77.88243,12.86821],[77.8779,12.86871],[77.87555,12.86719],[77.86761,12.8681],[77.86686,12.87085],[77.8676,12.8677],[77.85716,12.869],[77.85719,12.86762],[77.85052,12.86587],[77.84766,12.86912],[77.83876,12.86941],[77.83693,12.87068],[77.83696,12.87036],[77.83259,12.86756],[77.83308,12.86202],[77.82569,12.8604],[77.82292,12.85599],[77.81524,12.85593],[77.8079,12.84768],[77.799,12.85195],[77.7968,12.84496],[77.79483,12.8455],[77.79259,12.84341],[77.79559,12.8348],[77.81006,12.83102],[77.80795,12.82326],[77.80978,12.81582],[77.80224,12.81714],[77.79998,12.80543],[77.80396,12.80479],[77.80534,12.80031],[77.80749,12.79968],[77.80903,12.79683],[77.80661,12.79413],[77.80415,12.79424],[77.80232,12.7963],[77.80047,12.79446],[77.79942,12.79577],[77.79471,12.7917],[77.79082,12.78343],[77.7789,12.76796],[77.78532,12.76211],[77.79501,12.75823],[77.792,12.74675],[77.78401,12.74113],[77.76959,12.74026],[77.763,12.7364],[77.76106,12.72726],[77.77441,12.72451],[77.7707,12.71826],[77.7697,12.71321],[77.76613,12.71297],[77.76507,12.70264],[77.76257,12.69696],[77.75416,12.69729],[77.74104,12.7008],[77.73756,12.69839],[77.73596,12.69177],[77.74099,12.68544],[77.74168,12.68211],[77.741,12.67373],[77.73872,12.67205],[77.73007,12.67289],[77.72478,12.6708],[77.72321,12.67938],[77.71196,12.68339],[77.71086,12.66639],[77.7027,12.6608],[77.69189,12.66054],[77.68965,12.65849],[77.6787,12.66024],[77.67887,12.66193],[77.67615,12.66345],[77.67734,12.67216],[77.6755,12.67357],[77.67707,12.67933],[77.66325,12.68327],[77.59793,12.66809],[77.59633,12.66416],[77.59464,12.6668],[77.59715,12.65807],[77.59604,12.6496],[77.59927,12.64288],[77.60414,12.63853],[77.60291,12.63554],[77.60553,12.62895],[77.59761,12.62296],[77.59505,12.6226],[77.59125,12.61717],[77.59153,12.59137],[77.58948,12.59187],[77.5874,12.5841],[77.5797,12.57272],[77.57915,12.56672],[77.58119,12.56488],[77.58058,12.55139],[77.58179,12.55038],[77.58455,12.55176],[77.58992,12.5478],[77.58806,12.53584],[77.58987,12.52919],[77.58809,12.51686],[77.60147,12.51601],[77.61004,12.51308],[77.61172,12.51409],[77.6152,12.50852],[77.61353,12.50271],[77.60124,12.49584],[77.5908,12.48416],[77.58714,12.48379],[77.58314,12.47794],[77.59485,12.47479],[77.60689,12.47446],[77.62618,12.49637],[77.63585,12.48797],[77.63245,12.47927],[77.63352,12.4711],[77.63118,12.47091],[77.62872,12.46006],[77.627,12.45878],[77.62885,12.44919],[77.62671,12.43716],[77.62841,12.41804],[77.6207,12.41341],[77.62264,12.40331],[77.62132,12.4029],[77.62045,12.39375],[77.62111,12.38419],[77.61772,12.38144],[77.61706,12.36998],[77.61439,12.3626],[77.60096,12.35873],[77.59787,12.3486],[77.59393,12.34557],[77.59135,12.33943],[77.58131,12.3362],[77.57577,12.33634],[77.57341,12.32397],[77.56606,12.30684],[77.55743,12.30519],[77.55775,12.30198],[77.55659,12.30235],[77.55155,12.29668],[77.55109,12.28924],[77.534,12.28935],[77.53295,12.28255],[77.52826,12.27133],[77.51613,12.26795],[77.51014,12.26874],[77.50397,12.27396],[77.48986,12.27802],[77.48717,12.2731],[77.48141,12.26973],[77.47777,12.26328],[77.47957,12.25739],[77.4754,12.25471],[77.47365,12.24906],[77.47391,12.24219],[77.47423,12.24263],[77.47942,12.23867],[77.48257,12.22936],[77.4718,12.20908],[77.47559,12.20571],[77.48625,12.20376],[77.49292,12.19762],[77.51878,12.19459],[77.52872,12.19921],[77.53586,12.19859],[77.54573,12.20478],[77.56527,12.19639],[77.56937,12.19995],[77.57411,12.20111],[77.5802,12.19841],[77.59579,12.19897],[77.60554,12.20582],[77.61139,12.20638],[77.62021,12.20035],[77.62998,12.20244],[77.63526,12.19767],[77.63876,12.19682],[77.6558,12.19967],[77.66518,12.19837],[77.69703,12.18534],[77.71197,12.18236],[77.72628,12.18222],[77.73319,12.17856],[77.73565,12.16954],[77.74509,12.15973],[77.74744,12.15324],[77.74657,12.1451],[77.75128,12.13619],[77.76004,12.1287],[77.7733,12.12117],[77.77642,12.11693],[77.77651,12.11236],[77.77298,12.10833],[77.76762,12.10669],[77.75498,12.0786],[77.74275,12.07013],[77.72786,12.06274],[77.71732,12.04623],[77.70871,12.03833],[77.706,12.03033],[77.69548,12.01406],[77.67591,11.96912],[77.67397,11.96244],[77.67507,11.95193],[77.66867,11.94936],[77.65824,11.94993],[77.65583,11.95403],[77.65121,11.95485],[77.64866,11.95382],[77.64696,11.95068],[77.63934,11.94831],[77.62871,11.9467],[77.62362,11.94751],[77.61255,11.94278],[77.60692,11.94227],[77.60332,11.93797],[77.59198,11.94045],[77.58587,11.93712],[77.57546,11.93672],[77.56047,11.94216],[77.54262,11.93845],[77.53797,11.93267],[77.52868,11.93393],[77.51853,11.93833],[77.51235,11.93804],[77.50422,11.94152],[77.50015,11.94024],[77.49629,11.9439],[77.49405,11.94365],[77.49174,11.92144],[77.48843,11.91225],[77.49069,11.91037],[77.49039,11.90856],[77.48321,11.90006],[77.48566,11.88788],[77.48119,11.89362],[77.47921,11.8935],[77.47804,11.89091],[77.47644,11.89144],[77.4733,11.89988],[77.46154,11.90021],[77.46388,11.89339],[77.46221,11.88942],[77.46315,11.88498],[77.46052,11.88044],[77.46595,11.87447],[77.46289,11.86479],[77.46007,11.86372],[77.46298,11.85964],[77.46152,11.85398],[77.46698,11.84996],[77.46707,11.84667],[77.46259,11.84054],[77.46056,11.83211],[77.45616,11.8271],[77.45194,11.8127],[77.45357,11.80762],[77.45164,11.80529],[77.45212,11.80202],[77.45051,11.8008],[77.45149,11.7995],[77.44828,11.7901],[77.44171,11.78854],[77.44047,11.78634],[77.4433,11.78315],[77.44258,11.78184],[77.43786,11.78138],[77.43384,11.77823],[77.42852,11.7672],[77.42777,11.76111],[77.42265,11.76229],[77.42218,11.77253],[77.41354,11.775],[77.39443,11.78786],[77.38784,11.78876],[77.3698,11.78688],[77.36887,11.78979],[77.36485,11.79045],[77.35987,11.77992],[77.33504,11.77153],[77.32752,11.77575],[77.3135,11.79281],[77.29369,11.80932],[77.28748,11.80058],[77.2746,11.80304],[77.27303,11.80543],[77.26138,11.81061],[77.2503,11.81293],[77.24961,11.80442],[77.24644,11.8002],[77.23823,11.79429],[77.22465,11.79592],[77.18949,11.79268],[77.18916,11.79869],[77.18254,11.79303],[77.16116,11.79253],[77.15102,11.78745],[77.13686,11.78967],[77.13444,11.78577],[77.1258,11.78444],[77.12199,11.78176],[77.11876,11.78223],[77.11992,11.7728],[77.11051,11.77353],[77.11306,11.76536],[77.11147,11.76395],[77.11253,11.75653],[77.10866,11.75321],[77.11158,11.75072],[77.1122,11.72376],[77.10523,11.73292],[77.08028,11.73585],[77.08196,11.74017],[77.07062,11.75153],[77.05627,11.76965],[77.06073,11.77725],[77.07022,11.78171],[77.06542,11.78984],[77.06391,11.79076],[77.04391,11.7865],[77.04543,11.78437],[77.03937,11.78003],[77.03541,11.76996],[77.02901,11.77458],[77.03584,11.7831],[77.0389,11.79403],[77.0326,11.79557],[77.03414,11.80003],[77.03089,11.80197],[77.02923,11.8053],[77.01666,11.81166],[77.01571,11.80839],[77.01341,11.80783],[77.01243,11.81516],[76.99392,11.80817],[76.98348,11.81153],[76.98462,11.80927],[76.98254,11.80475],[76.98494,11.80269],[76.98031,11.79823],[76.98117,11.79634],[76.97833,11.79129],[76.97479,11.78933],[76.97527,11.7875],[76.96944,11.77765],[76.96097,11.78164],[76.95648,11.79038],[76.95373,11.79161],[76.95041,11.79185],[76.94891,11.78965],[76.94177,11.78778],[76.93136,11.79178],[76.92215,11.79182],[76.90729,11.79587],[76.90578,11.7916],[76.89938,11.78511],[76.89945,11.78268],[76.89618,11.77794],[76.89733,11.76952],[76.89514,11.75762],[76.88777,11.74171],[76.88814,11.73585],[76.88195,11.72875],[76.87636,11.72497],[76.8731,11.71903],[76.86115,11.70611],[76.85803,11.69986],[76.85567,11.69994],[76.85091,11.69375],[76.84325,11.67533],[76.84334,11.66787],[76.84143,11.66591],[76.84143,11.66155],[76.83856,11.66059],[76.83795,11.65723],[76.83483,11.65567],[76.83587,11.65424],[76.83381,11.64832],[76.83785,11.64188],[76.83467,11.63961],[76.83813,11.63574],[76.84385,11.63288],[76.84512,11.63442],[76.84485,11.6285],[76.8428,11.62716],[76.84947,11.62479],[76.8484,11.62314],[76.84935,11.62157],[76.85207,11.62191],[76.84871,11.61893],[76.85041,11.61625],[76.85784,11.61433],[76.85745,11.61012],[76.85557,11.60836],[76.85716,11.60534],[76.8562,11.59947],[76.85308,11.5968],[76.84678,11.59496],[76.83231,11.60084],[76.82408,11.60805],[76.81738,11.6049],[76.81013,11.6085],[76.79606,11.60877],[76.79147,11.61313],[76.77495,11.61254],[76.7709,11.61568],[76.76231,11.61492],[76.75768,11.61811],[76.74847,11.61441],[76.74259,11.6139],[76.73737,11.61541],[76.70601,11.61383],[76.70184,11.61526],[76.68927,11.61503],[76.68371,11.61293],[76.6699,11.61545],[76.6496,11.61277],[76.6368,11.61351],[76.6161,11.60792],[76.61325,11.61222],[76.60415,11.60961],[76.59772,11.60966],[76.59728,11.61524],[76.59231,11.61817],[76.59047,11.61727],[76.59041,11.61859],[76.58395,11.61414],[76.57916,11.61621],[76.57696,11.61481],[76.57547,11.61947],[76.56768,11.61894],[76.56296,11.62337],[76.55996,11.62359],[76.56153,11.63304],[76.55973,11.63369],[76.55868,11.63899],[76.55403,11.64648],[76.55518,11.65296],[76.55031,11.66213],[76.54965,11.6657],[76.55175,11.67246],[76.54999,11.6752],[76.52701,11.69352],[76.50649,11.70123],[76.50286,11.69429],[76.49586,11.6923],[76.49546,11.68999],[76.49054,11.68901],[76.48837,11.68697],[76.48024,11.6885],[76.48071,11.68325],[76.47923,11.68068],[76.47291,11.67919],[76.46353,11.6692],[76.45948,11.66699],[76.45705,11.664],[76.45754,11.65979],[76.45568,11.65845],[76.45286,11.66007],[76.44481,11.66037],[76.43972,11.66476],[76.43492,11.66407],[76.4341,11.66625],[76.42928,11.66627],[76.42834,11.66934],[76.42588,11.67098],[76.41926,11.67032],[76.41543,11.67203],[76.4141,11.67493],[76.41518,11.67613],[76.41257,11.68025],[76.41341,11.68125],[76.4118,11.6825],[76.41233,11.68534],[76.40865,11.68945],[76.41021,11.69121],[76.40975,11.69493],[76.41141,11.69556],[76.40917,11.69818],[76.4084,11.70539],[76.40589,11.70467],[76.40288,11.70664],[76.40267,11.71085],[76.4056,11.7113],[76.40666,11.71411],[76.41029,11.71628],[76.41322,11.71501],[76.41301,11.71213],[76.41457,11.71269],[76.41644,11.71875],[76.42568,11.72658],[76.41779,11.74221],[76.41323,11.7393],[76.40969,11.74073],[76.4128,11.74602],[76.41244,11.75281],[76.41579,11.75415],[76.41537,11.75662],[76.41252,11.7585],[76.40921,11.75875],[76.39865,11.75142],[76.39361,11.75536],[76.39056,11.7538],[76.38639,11.74817],[76.37877,11.74496],[76.36682,11.74749],[76.35212,11.73849],[76.35001,11.73979],[76.34039,11.7378],[76.32882,11.74824],[76.31767,11.75163],[76.31116,11.7745],[76.2995,11.78249],[76.2958,11.78677],[76.28072,11.81151],[76.27516,11.81209],[76.25983,11.80908],[76.24898,11.80366],[76.23898,11.80261],[76.23052,11.80456],[76.22285,11.80878],[76.21812,11.81346],[76.21856,11.81701],[76.21573,11.82262],[76.20987,11.82908],[76.21312,11.84288],[76.21021,11.84794],[76.20957,11.85603],[76.2071,11.86255],[76.20551,11.86119],[76.20015,11.86268],[76.19892,11.86527],[76.1871,11.87202],[76.18682,11.8709],[76.16978,11.86906],[76.16583,11.86594],[76.15453,11.86858],[76.14741,11.8662],[76.14314,11.86155],[76.14227,11.86237],[76.13589,11.85769],[76.13226,11.85295],[76.12704,11.8533],[76.12096,11.84891],[76.11677,11.85517],[76.11739,11.85682],[76.11365,11.85794],[76.11494,11.86684],[76.11071,11.89294],[76.1119,11.90461],[76.10883,11.92209],[76.10989,11.97463],[76.0912,11.96848],[76.08453,11.97743],[76.0754,11.98329],[76.06721,11.98413],[76.06691,11.99222],[76.06469,11.98636],[76.06754,11.98195],[76.0631,11.97844],[76.06275,11.9609],[76.06148,11.95963],[76.05216,11.95189],[76.04599,11.95116],[76.04286,11.94638],[76.03959,11.94552],[76.03313,11.9403],[76.02403,11.94368],[76.0151,11.94099],[76.01306,11.94182],[76.00644,11.93731],[76.00342,11.93099],[75.99421,11.93171],[75.99022,11.93008],[75.98639,11.93293],[75.98366,11.93172],[75.98045,11.9332],[75.97606,11.9328],[75.95657,11.94069],[75.955,11.93917],[75.95515,11.94236],[75.9517,11.94107],[75.93749,11.94247],[75.9367,11.94076],[75.93069,11.93992],[75.9274,11.94353],[75.91369,11.94714],[75.89697,11.94579],[75.88604,11.95202],[75.8802,11.94996],[75.87245,11.95345],[75.87039,11.9528],[75.86727,11.9569],[75.85868,11.95972],[75.85446,11.96444],[75.8531,11.97207],[75.85097,11.9729],[75.85344,11.978],[75.85089,11.97904],[75.85149,11.98165],[75.84976,11.98445],[75.84451,11.98463],[75.84261,11.98633],[75.84061,11.985],[75.83137,11.99201],[75.82804,11.99864],[75.82479,12.01266],[75.81632,12.01805],[75.81401,12.02209],[75.80981,12.02382],[75.81203,12.02844],[75.80164,12.03616],[75.80115,12.04338],[75.7988,12.04936],[75.79933,12.05285],[75.79466,12.05665],[75.79882,12.05696],[75.79809,12.06362],[75.80114,12.06959],[75.80105,12.07429],[75.80343,12.07587],[75.8,12.07958],[75.79559,12.08244],[75.79019,12.0826],[75.78518,12.08487],[75.7803,12.08326],[75.75357,12.08485],[75.74933,12.08292],[75.74711,12.0785],[75.74344,12.08045],[75.73619,12.07929],[75.72769,12.0728],[75.72488,12.07334],[75.71519,12.07056],[75.71552,12.08187],[75.71782,12.08276],[75.71798,12.08593],[75.71345,12.09061],[75.70223,12.0925],[75.70318,12.10827],[75.69519,12.11072],[75.68779,12.11061],[75.67662,12.09839],[75.66753,12.09767],[75.66193,12.09949],[75.65309,12.10787],[75.65264,12.11023],[75.64896,12.10967],[75.64875,12.11314],[75.64657,12.1156],[75.6475,12.12204],[75.64405,12.12589],[75.64414,12.13444],[75.64039,12.14018],[75.63814,12.14094],[75.63932,12.14422],[75.63627,12.14927],[75.63137,12.14888],[75.61871,12.15675],[75.61083,12.15285],[75.6066,12.15575],[75.60126,12.15384],[75.59583,12.15449],[75.59251,12.14796],[75.59034,12.15279],[75.58407,12.15683],[75.58309,12.15942],[75.57728,12.15797],[75.56901,12.1751],[75.55913,12.17783],[75.55084,12.18662],[75.54755,12.19723],[75.54475,12.19917],[75.54108,12.19831],[75.5391,12.20297],[75.53562,12.2022],[75.53322,12.2039],[75.53308,12.20171],[75.5317,12.20245],[75.53124,12.20579],[75.53512,12.20609],[75.53892,12.2152],[75.53606,12.21821],[75.5266,12.22254],[75.52374,12.22762],[75.5243,12.22987],[75.51709,12.23519],[75.51866,12.23763],[75.51838,12.24211],[75.51619,12.24433],[75.51643,12.24676],[75.5105,12.25104],[75.50983,12.25789],[75.51185,12.25793],[75.51173,12.26066],[75.50569,12.26544],[75.50535,12.27155],[75.49417,12.27298],[75.48872,12.2829],[75.50129,12.29846],[75.49849,12.29774],[75.49553,12.30055],[75.48848,12.30289],[75.48177,12.29802],[75.47358,12.29949],[75.45706,12.29917],[75.45103,12.29405],[75.44512,12.29247],[75.45067,12.29832],[75.45455,12.30014],[75.45362,12.30169],[75.45735,12.30355],[75.45635,12.3051],[75.46003,12.3065],[75.45807,12.30887],[75.45663,12.32024],[75.44997,12.32149],[75.44461,12.32062],[75.44204,12.31679],[75.43896,12.31596],[75.43511,12.31217],[75.42735,12.31129],[75.42026,12.31999],[75.41886,12.32949],[75.41636,12.33053],[75.41647,12.34178],[75.41213,12.34951],[75.4197,12.35727],[75.41209,12.36083],[75.4044,12.3569],[75.40073,12.35871],[75.39147,12.35437],[75.3899,12.35471],[75.38413,12.36422],[75.37937,12.3673],[75.37658,12.36704],[75.3738,12.36932],[75.36828,12.36718],[75.36223,12.36967],[75.35862,12.3684],[75.36033,12.37248],[75.35755,12.37904],[75.34952,12.38085],[75.34845,12.3929],[75.34185,12.39799],[75.34206,12.40046],[75.33866,12.401],[75.34125,12.40736],[75.35235,12.41069],[75.36016,12.40598],[75.36356,12.41212],[75.36214,12.4163],[75.36571,12.41897],[75.37167,12.43897],[75.3694,12.44123],[75.37102,12.44944],[75.36744,12.45434],[75.3664,12.45967],[75.37187,12.45753],[75.37503,12.45921],[75.38228,12.45602],[75.38337,12.45837],[75.38567,12.45764],[75.38774,12.45897],[75.39255,12.45605],[75.39295,12.45283],[75.39671,12.45233],[75.399,12.45558],[75.41281,12.45766],[75.41511,12.46454],[75.4267,12.46768],[75.42539,12.47267],[75.4238,12.47352],[75.4244,12.47556],[75.41919,12.48063],[75.42007,12.48864],[75.41668,12.49267],[75.41667,12.49567],[75.41816,12.49552],[75.41526,12.49996],[75.41657,12.50263],[75.41509,12.50467],[75.41553,12.50195],[75.41204,12.50301]]],[[[74.69194,13.33266],[74.69308,13.33136],[74.69236,13.33029],[74.69149,13.3314],[74.69194,13.33266]]],[[[74.68876,13.34049],[74.69087,13.33913],[74.6894,13.33577],[74.68775,13.33699],[74.68876,13.34049]]],[[[74.68424,13.34677],[74.68738,13.34459],[74.68814,13.342],[74.68344,13.34384],[74.68424,13.34677]]],[[[74.68196,13.38422],[74.68495,13.38262],[74.68624,13.37837],[74.68326,13.38046],[74.68196,13.38422]]],[[[74.28073,14.65639],[74.28047,14.65598],[74.28036,14.65633],[74.28073,14.65639]]],[[[74.25262,14.70553],[74.25491,14.70441],[74.25211,14.7045],[74.25262,14.70553]]],[[[74.25469,14.7247],[74.25709,14.72237],[74.25555,14.72067],[74.25416,14.72168],[74.25469,14.7247]]],[[[74.14325,14.75831],[74.13844,14.76086],[74.13909,14.76312],[74.14561,14.76309],[74.1463,14.76018],[74.14325,14.75831]]],[[[74.11165,14.84523],[74.11305,14.84234],[74.10797,14.84254],[74.10728,14.84347],[74.11009,14.84577],[74.11165,14.84523]]],[[[74.1147,14.84498],[74.11433,14.84326],[74.11464,14.84521],[74.1147,14.84498]]],[[[74.10192,14.87825],[74.10173,14.8763],[74.10002,14.87675],[74.10192,14.87825]]],[[[74.26652,15.80766],[74.26898,15.81605],[74.26289,15.82942],[74.2926,15.83221],[74.30523,15.80572],[74.31399,15.79988],[74.31313,15.79454],[74.30613,15.78908],[74.30176,15.78767],[74.29387,15.79587],[74.28952,15.78708],[74.2812,15.78991],[74.27489,15.79528],[74.27085,15.79508],[74.26649,15.79755],[74.268,15.79996],[74.26652,15.80766]]],[[[77.52395,17.78581],[77.5268,17.78495],[77.52563,17.78246],[77.52161,17.7827],[77.52395,17.78581]]],[[[77.29988,18.47605],[77.29932,18.46527],[77.29762,18.46476],[77.29534,18.45896],[77.29032,18.45519],[77.28496,18.45572],[77.27821,18.45341],[77.26735,18.45426],[77.26776,18.45925],[77.27512,18.47762],[77.2869,18.47434],[77.29227,18.47698],[77.29988,18.47605]]]]},"properties":{"name":"Karnataka","level":"state","state_code":29}}]}